{
  "Stores": [
    {
      "Division": "SUPERMARKETS",
      "Name": "Channel Court",
      "AddressLine1": "Freeman Street",
      "Suburb": "Kingston",
      "State": "TAS",
      "Postcode": "7050"
    },
    {
      "Division": "SUPERMARKETS",
      "Name": "Claremont",
      "AddressLine1": "35 Main Road",
      "Suburb": "Claremont",
      "State": "TAS",
      "Postcode": "7011"
    },
    {
      "Division": "SUPERMARKETS",
      "Name": "Deloraine",
      "AddressLine1": "78 Emu Bay Road",
      "Suburb": "Deloraine",
      "State": "TAS",
      "Postcode": "7304"
    },
    {
      "Division": "SUPERMARKETS",
      "Name": "Devonport",
      "AddressLine1": "74 Best Street",
      "Suburb": "Devonport",
      "State": "TAS",
      "Postcode": "7310"
    },
    {
      "Division": "SUPERMARKETS",
      "Name": "Eastlands (Tasmania)",
      "AddressLine1": "26 Bligh Street",
      "Suburb": "Rosny",
      "State": "TAS",
      "Postcode": "7018"
    },
    {
      "Division": "SUPERMARKETS",
      "Name": "George Town",
      "AddressLine1": "8 Bathurst Street",
      "Suburb": "George Town",
      "State": "TAS",
      "Postcode": "7253"
    },
    {
      "Division": "SUPERMARKETS",
      "Name": "Glenorchy",
      "AddressLine1": "2 Cooper Street",
      "Suburb": "Glenorchy",
      "State": "TAS",
      "Postcode": "7010"
    },
    {
      "Division": "SUPERMARKETS",
      "Name": "Green Point",
      "AddressLine1": "28 Green Point Road",
      "Suburb": "Bridgewater",
      "State": "TAS",
      "Postcode": "7030"
    },
    {
      "Division": "SUPERMARKETS",
      "Name": "Hobart CBD",
      "AddressLine1": "44 Argyle St,",
      "Suburb": "Hobart",
      "State": "TAS",
      "Postcode": "7000"
    },
    {
      "Division": "SUPERMARKETS",
      "Name": "Hobart City (Campbell St)",
      "AddressLine1": "189 Campbell Street",
      "Suburb": "Hobart",
      "State": "TAS",
      "Postcode": "7000"
    },
    {
      "Division": "SUPERMARKETS",
      "Name": "Huonville",
      "AddressLine1": "79 Main Road",
      "Suburb": "Huonville",
      "State": "TAS",
      "Postcode": "7109"
    },
    {
      "Division": "SUPERMARKETS",
      "Name": "Kings Meadows",
      "AddressLine1": "111 Hobart Road",
      "Suburb": "Kings Meadows",
      "State": "TAS",
      "Postcode": "7249"
    },
    {
      "Division": "SUPERMARKETS",
      "Name": "Kingston",
      "AddressLine1": "37-39 Maranoa Road",
      "Suburb": "Kingston",
      "State": "TAS",
      "Postcode": "7050"
    },
    {
      "Division": "SUPERMARKETS",
      "Name": "Launceston",
      "AddressLine1": "36 - 40 Wellington Street",
      "Suburb": "Launceston",
      "State": "TAS",
      "Postcode": "7250"
    },
    {
      "Division": "SUPERMARKETS",
      "Name": "Legana",
      "AddressLine1": "2 - 12 Legana Grove",
      "Suburb": "Legana",
      "State": "TAS",
      "Postcode": "7277"
    },
    {
      "Division": "SUPERMARKETS",
      "Name": "Lindisfarne",
      "AddressLine1": "6 Franklin Street",
      "Suburb": "Lindisfarne",
      "State": "TAS",
      "Postcode": "7015"
    },
    {
      "Division": "SUPERMARKETS",
      "Name": "Moonah",
      "AddressLine1": "114 Main Road",
      "Suburb": "Moonah",
      "State": "TAS",
      "Postcode": "7009"
    },
    {
      "Division": "SUPERMARKETS",
      "Name": "Mount Street",
      "AddressLine1": "230 Mount Street",
      "Suburb": "Upper Burnie",
      "State": "TAS",
      "Postcode": "7320"
    },
    {
      "Division": "SUPERMARKETS",
      "Name": "Mowbray",
      "AddressLine1": "262 Invermay Road",
      "Suburb": "Mowbray",
      "State": "TAS",
      "Postcode": "7248"
    },
    {
      "Division": "SUPERMARKETS",
      "Name": "New Norfolk",
      "AddressLine1": "51-61 George Street",
      "Suburb": "New Norfolk",
      "State": "TAS",
      "Postcode": "7140"
    },
    {
      "Division": "SUPERMARKETS",
      "Name": "New Town",
      "AddressLine1": "192-196 New Town Road",
      "Suburb": "New Town",
      "State": "TAS",
      "Postcode": "7008"
    },
    {
      "Division": "SUPERMARKETS",
      "Name": "Northgate (Glenorchy)",
      "AddressLine1": "387-393 Main Rd",
      "Suburb": "Glenorchy",
      "State": "TAS",
      "Postcode": "7010"
    },
    {
      "Division": "SUPERMARKETS",
      "Name": "Port Sorell",
      "AddressLine1": "11 Poyston Drive",
      "Suburb": "Shearwater",
      "State": "TAS",
      "Postcode": "7307"
    },
    {
      "Division": "SUPERMARKETS",
      "Name": "Prospect Vale",
      "AddressLine1": "350-358 Westbury Road",
      "Suburb": "Prospect",
      "State": "TAS",
      "Postcode": "7250"
    },
    {
      "Division": "SUPERMARKETS",
      "Name": "Riverside",
      "AddressLine1": "310 West Tamar Highway",
      "Suburb": "Riverside",
      "State": "TAS",
      "Postcode": "7250"
    },
    {
      "Division": "SUPERMARKETS",
      "Name": "Sandy Bay",
      "AddressLine1": "57 King Street",
      "Suburb": "Sandy Bay",
      "State": "TAS",
      "Postcode": "7005"
    },
    {
      "Division": "SUPERMARKETS",
      "Name": "Scottsdale",
      "AddressLine1": "1 Victoria Street",
      "Suburb": "Scottsdale",
      "State": "TAS",
      "Postcode": "7260"
    },
    {
      "Division": "SUPERMARKETS",
      "Name": "Shoreline",
      "AddressLine1": "6 Shoreline Drive",
      "Suburb": "Howrah",
      "State": "TAS",
      "Postcode": "7018"
    },
    {
      "Division": "SUPERMARKETS",
      "Name": "Smithton",
      "AddressLine1": "142 Nelson Street",
      "Suburb": "Smithton",
      "State": "TAS",
      "Postcode": "7330"
    },
    {
      "Division": "SUPERMARKETS",
      "Name": "Sorell",
      "AddressLine1": "27 Cole Street",
      "Suburb": "Sorell",
      "State": "TAS",
      "Postcode": "7172"
    },
    {
      "Division": "SUPERMARKETS",
      "Name": "Ulverstone",
      "AddressLine1": "11 Crescent Street",
      "Suburb": "Ulverstone",
      "State": "TAS",
      "Postcode": "7315"
    },
    {
      "Division": "SUPERMARKETS",
      "Name": "Wynyard",
      "AddressLine1": "106 -110 Goldie St",
      "Suburb": "Wynyard",
      "State": "TAS",
      "Postcode": "7325"
    }
  ]
}