[
    {
        "city": "Erskine Park",
        "line1": "Swallow Drive 180-188",
        "postcode": "2759",
        "region": "NSW",
        "c_internalALDIID": "1199",
        "c_locationName": "ALDI Erskine Park"
    },
    {
        "city": "Merrylands",
        "line1": "Pitt Street 191 - 201",
        "postcode": "2160",
        "region": "NSW",
        "c_internalALDIID": "1795",
        "c_locationName": "ALDI Merrylands"
    },
    {
        "city": "Warners Bay",
        "line1": "King Street 6",
        "postcode": "2282",
        "region": "NSW",
        "c_internalALDIID": "1868",
        "c_locationName": "ALDI Warners Bay"
    },
    {
        "city": "Chatswood",
        "line1": "Anderson Street 1",
        "postcode": "2067",
        "region": "NSW",
        "c_internalALDIID": "0683",
        "c_locationName": "ALDI Chatswood"
    },
    {
        "city": "McGraths Hill",
        "line1": "5 Curtis Road",
        "postcode": "2756",
        "region": "NSW",
        "c_internalALDIID": "1174",
        "c_locationName": "ALDI McGraths Hill"
    },
    {
        "city": "Wagga Wagga",
        "line1": "Berry Street 11",
        "postcode": "2650",
        "region": "NSW",
        "c_internalALDIID": "1645",
        "c_locationName": "ALDI Wagga Wagga"
    },
    {
        "city": "North Strathfield",
        "line1": "George Street 20",
        "postcode": "2137",
        "region": "NSW",
        "c_internalALDIID": "0044",
        "c_locationName": "ALDI North Strathfield"
    },
    {
        "city": "Kellyville",
        "line1": "92 Wrights Road",
        "postcode": "2155",
        "region": "NSW",
        "c_internalALDIID": "1200",
        "c_locationName": "ALDI Kellyville"
    },
    {
        "city": "Dapto",
        "line1": "38 Osborne Street",
        "postcode": "2530",
        "region": "NSW",
        "c_internalALDIID": "0026",
        "c_locationName": "ALDI Dapto"
    },
    {
        "city": "Casino",
        "line1": "139 Centre Street",
        "postcode": "2470",
        "region": "NSW",
        "c_internalALDIID": "0812",
        "c_locationName": "ALDI Casino"
    }
]