[
    {
        "city": "Charlestown",
        "line1": "Pearson Street 30",
        "postcode": "2290",
        "region": "NSW",
        "c_internalALDIID": "2254",
        "c_locationName": "ALDI Charlestown"
    },
    {
        "city": "Balgowlah",
        "line1": "22 - 26 Roseberry Street",
        "postcode": "2093",
        "region": "NSW",
        "c_internalALDIID": "2394",
        "c_locationName": "ALDI Balgowlah"
    },
    {
        "city": "Emerald Hills",
        "line1": "5 Emerald Hills Boulevarde",
        "postcode": "2179",
        "region": "NSW",
        "c_internalALDIID": "2229",
        "c_locationName": "ALDI Emerald Hills"
    },
    {
        "city": "Belrose",
        "line1": "Glen Street 56 - 58",
        "postcode": "2085",
        "region": "NSW",
        "c_internalALDIID": "2123",
        "c_locationName": "ALDI Belrose"
    },
    {
        "city": "Riverwood",
        "line1": "247 - 253 Belmore Road",
        "postcode": "2210",
        "region": "NSW",
        "c_internalALDIID": "2415",
        "c_locationName": "ALDI Riverwood"
    },
    {
        "city": "Kirrawee",
        "line1": "Princes Highway 580",
        "postcode": "2232",
        "region": "NSW",
        "c_internalALDIID": "1748",
        "c_locationName": "ALDI Kirrawee"
    },
    {
        "city": "Moss Vale",
        "line1": "Roberston Road 6",
        "postcode": "2577",
        "region": "NSW",
        "c_internalALDIID": "2382",
        "c_locationName": "ALDI Moss Vale"
    },
    {
        "city": "Hoxton Park",
        "line1": "501 Cowpasture Road",
        "postcode": "2171",
        "region": "NSW",
        "c_internalALDIID": "2277",
        "c_locationName": "ALDI Hoxton Park"
    },
    {
        "city": "Rhodes",
        "line1": "1 Rider Boulevarde",
        "postcode": "2138",
        "region": "NSW",
        "c_internalALDIID": "1781",
        "c_locationName": "ALDI Rhodes"
    },
    {
        "city": "Narellan",
        "line1": "Camden Valley Way 304 - 306",
        "postcode": "2567",
        "region": "NSW",
        "c_internalALDIID": "1959",
        "c_locationName": "ALDI Narellan"
    },
    {
        "city": "Fairfield",
        "line1": "8 - 36 Station Street",
        "postcode": "2165",
        "region": "NSW",
        "c_internalALDIID": "2182",
        "c_locationName": "ALDI Fairfield"
    },
    {
        "city": "Casula",
        "line1": "1 Ingham Drive",
        "postcode": "2170",
        "region": "NSW",
        "c_internalALDIID": "2313",
        "c_locationName": "ALDI Casula"
    },
    {
        "city": "Chatswood",
        "line1": "256 - 260 Victoria Avenue",
        "postcode": "2067",
        "region": "NSW",
        "c_internalALDIID": "2436",
        "c_locationName": "ALDI Chatswood"
    },
    {
        "city": "Griffith",
        "line1": "4 - 6 Oakes Road",
        "postcode": "2680",
        "region": "NSW",
        "c_internalALDIID": "2225",
        "c_locationName": "ALDI Griffith"
    },
    {
        "city": "Roselands",
        "line1": "Roselands Avenue 24",
        "postcode": "2196",
        "region": "NSW",
        "c_internalALDIID": "2449",
        "c_locationName": "ALDI Roselands"
    },
    {
        "city": "Hillsdale",
        "line1": "Bunnerong Road 238 - 262",
        "postcode": "2036",
        "region": "NSW",
        "c_internalALDIID": "2094",
        "c_locationName": "ALDI Hillsdale"
    },
    {
        "city": "Lidcombe",
        "line1": "Parramatta Road 92",
        "postcode": "2141",
        "region": "NSW",
        "c_internalALDIID": "2057",
        "c_locationName": "ALDI Lidcombe"
    },
    {
        "city": "Mosman",
        "line1": "Brady Street 3 / 1",
        "postcode": "2088",
        "region": "NSW",
        "c_internalALDIID": "2356",
        "c_locationName": "ALDI Mosman"
    },
    {
        "city": "Corrimal",
        "line1": "Russell Street 7",
        "postcode": "2518",
        "region": "NSW",
        "c_internalALDIID": "2233",
        "c_locationName": "ALDI Corrimal"
    },
    {
        "city": "Auburn",
        "line1": "Queen Street 57-59",
        "postcode": "2144",
        "region": "NSW",
        "c_internalALDIID": "2469",
        "c_locationName": "ALDI Auburn"
    },
    {
        "city": "Carlton",
        "line1": "Edward Street 76",
        "postcode": "2218",
        "region": "NSW",
        "c_internalALDIID": "2464",
        "c_locationName": "ALDI Carlton"
    },
    {
        "city": "Lane Cove",
        "line1": "Rosenthal Avenue 2",
        "postcode": "2066",
        "region": "NSW",
        "c_internalALDIID": "2297",
        "c_locationName": "ALDI Lane Cove"
    },
    {
        "city": "Darlinghurst",
        "line1": "Oxford Street 73",
        "postcode": "2010",
        "region": "NSW",
        "c_internalALDIID": "0295",
        "c_locationName": "ALDI Darlinghurst"
    },
    {
        "city": "Eastgardens",
        "line1": "Bunnerong Road 152",
        "postcode": "2036",
        "region": "NSW",
        "c_internalALDIID": "2231",
        "c_locationName": "ALDI Eastgardens"
    },
    {
        "city": "Wetherill Park",
        "line1": "1024 The Horsely Drive",
        "postcode": "2164",
        "region": "NSW",
        "c_internalALDIID": "2355",
        "c_locationName": "ALDI Wetherill Park"
    },
    {
        "city": "Maitland",
        "line1": "405 / Mm01 High Street",
        "postcode": "2320",
        "region": "NSW",
        "c_internalALDIID": "2421",
        "c_locationName": "ALDI Maitland"
    },
    {
        "city": "Edmondson Park",
        "line1": "1952-1982 Camden Valley Way",
        "postcode": "2174",
        "region": "NSW",
        "c_internalALDIID": "1825",
        "c_locationName": "ALDI Edmondson Park"
    },
    {
        "city": "Campbelltown",
        "line1": "Gilchrist Drive 200",
        "postcode": "2560",
        "region": "NSW",
        "c_internalALDIID": "2230",
        "c_locationName": "ALDI Campbelltown"
    },
    {
        "city": "Forster",
        "line1": "3 - 17 Breese Parade",
        "postcode": "2428",
        "region": "NSW",
        "c_internalALDIID": "0547",
        "c_locationName": "ALDI Forster"
    },
    {
        "city": "Eastlakes",
        "line1": "Evans Ave 16D",
        "postcode": "2018",
        "region": "NSW",
        "c_internalALDIID": "2461",
        "c_locationName": "ALDI Eastlakes"
    },
    {
        "city": "Moonee Beach",
        "line1": "2B Moonee Beach Road",
        "postcode": "2450",
        "region": "NSW",
        "c_internalALDIID": "2479",
        "c_locationName": "ALDI Moonee Beach"
    },
    {
        "city": "Merimbula",
        "line1": "Main St 107",
        "postcode": "2548",
        "region": "NSW",
        "c_internalALDIID": "2267",
        "c_locationName": "ALDI Merimbula"
    },
    {
        "city": "Bomaderry",
        "line1": "Narang Rd 54",
        "postcode": "2541",
        "region": "NSW",
        "c_internalALDIID": "2291",
        "c_locationName": "ALDI Bomaderry"
    },
    {
        "city": "Gregory Hills",
        "line1": "Village Circuit 33",
        "postcode": "2557",
        "region": "NSW",
        "c_internalALDIID": "2473",
        "c_locationName": "ALDI Gregory Hills"
    },
    {
        "city": "Tamworth",
        "line1": "Peel Street 194 - 196",
        "postcode": "2340",
        "region": "NSW",
        "c_internalALDIID": "2384",
        "c_locationName": "ALDI Tamworth"
    },
    {
        "city": "Parramatta",
        "line1": "Church Street 175",
        "postcode": "2150",
        "region": "NSW",
        "c_internalALDIID": "2526",
        "c_locationName": "ALDI Parramatta"
    },
    {
        "city": "Salamander Bay",
        "line1": "Central Avenue 3",
        "postcode": "2317",
        "region": "NSW",
        "c_internalALDIID": "2397",
        "c_locationName": "ALDI Salamander Bay"
    },
    {
        "city": "Rosebery",
        "line1": "85 Dunning Avenue",
        "postcode": "2018",
        "region": "NSW",
        "c_internalALDIID": "2527",
        "c_locationName": "ALDI Rosebery"
    },
    {
        "city": "Box Hill",
        "line1": "745 Windsor Rd",
        "postcode": "2765",
        "region": "NSW",
        "c_internalALDIID": "2484",
        "c_locationName": "ALDI Box Hill"
    },
    {
        "city": "Newtown",
        "line1": "1/330 King St",
        "postcode": "2042",
        "region": "NSW",
        "c_internalALDIID": "2528",
        "c_locationName": "ALDI Newtown"
    },
    {
        "city": "Cobbitty",
        "line1": "3 Kakadu Street",
        "postcode": "2570",
        "region": "NSW",
        "c_internalALDIID": "2242",
        "c_locationName": "ALDI Cobbitty"
    },
    {
        "city": "Woolooware",
        "line1": "Captain Cook Dr 455 - 461",
        "postcode": "2230",
        "region": "NSW",
        "c_internalALDIID": "1866",
        "c_locationName": "ALDI Woolooware"
    }
]