[
    {
        "city": "Kurri Kurri",
        "line1": "106 -112 Barton Street",
        "postcode": "2327",
        "region": "NSW",
        "c_internalALDIID": "0903",
        "c_locationName": "ALDI Kurri Kurri"
    },
    {
        "city": "Newcastle CBD",
        "line1": "54 Union Street",
        "postcode": "2302",
        "region": "NSW",
        "c_internalALDIID": "1374",
        "c_locationName": "ALDI Newcastle CBD"
    },
    {
        "city": "Byron Bay",
        "line1": "1 Byron Street",
        "postcode": "2481",
        "region": "NSW",
        "c_internalALDIID": "1651",
        "c_locationName": "ALDI Byron Bay"
    },
    {
        "city": "Engadine",
        "line1": "101 / 15 Caldarra Avenue",
        "postcode": "2233",
        "region": "NSW",
        "c_internalALDIID": "1564",
        "c_locationName": "ALDI Engadine"
    },
    {
        "city": "Hornsby",
        "line1": "236 Pacific Highway",
        "postcode": "2077",
        "region": "NSW",
        "c_internalALDIID": "0194",
        "c_locationName": "ALDI Hornsby"
    },
    {
        "city": "Canterbury",
        "line1": "Jeffrey Street 73",
        "postcode": "2193",
        "region": "NSW",
        "c_internalALDIID": "0039",
        "c_locationName": "ALDI Canterbury"
    },
    {
        "city": "Rockdale",
        "line1": "Rockdale Plaza Drive 1",
        "postcode": "2216",
        "region": "NSW",
        "c_internalALDIID": "1824",
        "c_locationName": "ALDI Rockdale"
    },
    {
        "city": "Castle Hill",
        "line1": "Castle Street 6 - 14 / S",
        "postcode": "2154",
        "region": "NSW",
        "c_internalALDIID": "1867",
        "c_locationName": "ALDI Castle Hill"
    },
    {
        "city": "Tuggerah",
        "line1": "Wyong Rd 50",
        "postcode": "2259",
        "region": "NSW",
        "c_internalALDIID": "0185",
        "c_locationName": "ALDI Tuggerah"
    },
    {
        "city": "Rydalmere",
        "line1": "Victoria Road 359 - 363",
        "postcode": "2116",
        "region": "NSW",
        "c_internalALDIID": "1343",
        "c_locationName": "ALDI Rydalmere"
    },
    {
        "city": "Blacktown",
        "line1": "Patrick Street 17",
        "postcode": "2148",
        "region": "NSW",
        "c_internalALDIID": "1782",
        "c_locationName": "ALDI Blacktown"
    },
    {
        "city": "Armidale",
        "line1": "95 Barney Street",
        "postcode": "2350",
        "region": "NSW",
        "c_internalALDIID": "1558",
        "c_locationName": "ALDI Armidale"
    },
    {
        "city": "Blue Haven",
        "line1": "Roper Road 19",
        "postcode": "2262",
        "region": "NSW",
        "c_internalALDIID": "1761",
        "c_locationName": "ALDI Blue Haven"
    },
    {
        "city": "Menai",
        "line1": "509 Old Illawarra Road",
        "postcode": "2234",
        "region": "NSW",
        "c_internalALDIID": "0036",
        "c_locationName": "ALDI Menai"
    },
    {
        "city": "Point Clare",
        "line1": "53 - 59 Brisbane Water Drive",
        "postcode": "2250",
        "region": "NSW",
        "c_internalALDIID": "0567",
        "c_locationName": "ALDI Point Clare"
    },
    {
        "city": "Wollongong",
        "line1": "Stewart Street 25",
        "postcode": "2500",
        "region": "NSW",
        "c_internalALDIID": "0018",
        "c_locationName": "ALDI Wollongong"
    },
    {
        "city": "Tahmoor",
        "line1": "Remembrance Driveway 153 - 159",
        "postcode": "2573",
        "region": "NSW",
        "c_internalALDIID": "1406",
        "c_locationName": "ALDI Tahmoor"
    },
    {
        "city": "Waterloo",
        "line1": "Danks Street 20 A",
        "postcode": "2017",
        "region": "NSW",
        "c_internalALDIID": "1435",
        "c_locationName": "ALDI Waterloo"
    },
    {
        "city": "Lavington",
        "line1": "Wagga Road 385 - 387",
        "postcode": "2641",
        "region": "NSW",
        "c_internalALDIID": "1848",
        "c_locationName": "ALDI Lavington"
    },
    {
        "city": "North Richmond",
        "line1": "47 - 55 Bells Line Of Road",
        "postcode": "2754",
        "region": "NSW",
        "c_internalALDIID": "2012",
        "c_locationName": "ALDI North Richmond"
    },
    {
        "city": "Baulkham Hills",
        "line1": "Windsor Rd 373-383",
        "postcode": "2153",
        "region": "NSW",
        "c_internalALDIID": "0040",
        "c_locationName": "ALDI Baulkham Hills"
    },
    {
        "city": "Arndell Park",
        "line1": "Cnr Holbeche Road, Walters Road",
        "postcode": "2148",
        "region": "NSW",
        "c_internalALDIID": "0007",
        "c_locationName": "ALDI Arndell Park"
    },
    {
        "city": "Winston Hills",
        "line1": "192 Caroline Chisholm Drive",
        "postcode": "2153",
        "region": "NSW",
        "c_internalALDIID": "1021",
        "c_locationName": "ALDI Winston Hills"
    },
    {
        "city": "Taree",
        "line1": "98-106 High Street",
        "postcode": "2430",
        "region": "NSW",
        "c_internalALDIID": "0635",
        "c_locationName": "ALDI Taree"
    },
    {
        "city": "Bondi Junction",
        "line1": "Spring Street 71 - 91",
        "postcode": "2022",
        "region": "NSW",
        "c_internalALDIID": "1673",
        "c_locationName": "ALDI Bondi Junction"
    },
    {
        "city": "Ryde",
        "line1": "109-129 Blaxland Road",
        "postcode": "2112",
        "region": "NSW",
        "c_internalALDIID": "0440",
        "c_locationName": "ALDI Ryde"
    },
    {
        "city": "Katoomba",
        "line1": "201-205 Katoomba Street",
        "postcode": "2780",
        "region": "NSW",
        "c_internalALDIID": "0639",
        "c_locationName": "ALDI Katoomba"
    },
    {
        "city": "Ambarvale",
        "line1": "45 Woodhouse Drive",
        "postcode": "2560",
        "region": "NSW",
        "c_internalALDIID": "1109",
        "c_locationName": "ALDI Ambarvale"
    },
    {
        "city": "Mudgee",
        "line1": "97 - 99 Church Street",
        "postcode": "2850",
        "region": "NSW",
        "c_internalALDIID": "0777",
        "c_locationName": "ALDI Mudgee"
    },
    {
        "city": "Lakemba",
        "line1": "212 - 226 Haldon Street",
        "postcode": "2195",
        "region": "NSW",
        "c_internalALDIID": "0491",
        "c_locationName": "ALDI Lakemba"
    },
    {
        "city": "Gunnedah",
        "line1": "185 Conadilly Street",
        "postcode": "2380",
        "region": "NSW",
        "c_internalALDIID": "1942",
        "c_locationName": "ALDI Gunnedah"
    },
    {
        "city": "Albury",
        "line1": "Young Street 617 - 621",
        "postcode": "2640",
        "region": "NSW",
        "c_internalALDIID": "1189",
        "c_locationName": "ALDI Albury"
    },
    {
        "city": "Fairy Meadow",
        "line1": "102 - 110 Princess Highway",
        "postcode": "2519",
        "region": "NSW",
        "c_internalALDIID": "0019",
        "c_locationName": "ALDI Fairy Meadow"
    },
    {
        "city": "Cessnock",
        "line1": "165 - 167 Wollombi Road",
        "postcode": "2325",
        "region": "NSW",
        "c_internalALDIID": "0015",
        "c_locationName": "ALDI Cessnock"
    },
    {
        "city": "Campbelltown",
        "line1": "271 Queen Street",
        "postcode": "2560",
        "region": "NSW",
        "c_internalALDIID": "1894",
        "c_locationName": "ALDI Campbelltown"
    },
    {
        "city": "Miranda",
        "line1": "600 The Kingsway",
        "postcode": "2228",
        "region": "NSW",
        "c_internalALDIID": "0140",
        "c_locationName": "ALDI Miranda"
    },
    {
        "city": "Tweed Heads South",
        "line1": "9 - 11 Machinery Drive",
        "postcode": "2486",
        "region": "NSW",
        "c_internalALDIID": "0240",
        "c_locationName": "ALDI Tweed Heads South"
    },
    {
        "city": "Guildford",
        "line1": "280 - 290 Woodville Road",
        "postcode": "2161",
        "region": "NSW",
        "c_internalALDIID": "1018",
        "c_locationName": "ALDI Guildford"
    },
    {
        "city": "Toukley",
        "line1": "127 Evans St",
        "postcode": "2263",
        "region": "NSW",
        "c_internalALDIID": "1488",
        "c_locationName": "ALDI Toukley"
    },
    {
        "city": "Bankstown",
        "line1": "345 Henry Lawson Drive",
        "postcode": "2200",
        "region": "NSW",
        "c_internalALDIID": "0001",
        "c_locationName": "ALDI Bankstown"
    },
    {
        "city": "Penrith",
        "line1": "High Street 201 - 205",
        "postcode": "2750",
        "region": "NSW",
        "c_internalALDIID": "0067",
        "c_locationName": "ALDI Penrith"
    },
    {
        "city": "Bowral",
        "line1": "5-11 Banyette Street",
        "postcode": "2576",
        "region": "NSW",
        "c_internalALDIID": "0027",
        "c_locationName": "ALDI Bowral"
    },
    {
        "city": "Warriewood",
        "line1": "Jacksons Road 12",
        "postcode": "2102",
        "region": "NSW",
        "c_internalALDIID": "2156",
        "c_locationName": "ALDI Warriewood"
    },
    {
        "city": "Kotara",
        "line1": "30 Northcott Drive",
        "postcode": "2289",
        "region": "NSW",
        "c_internalALDIID": "1642",
        "c_locationName": "ALDI Kotara"
    },
    {
        "city": "Marsden Park",
        "line1": "10 Hollinsworth Road",
        "postcode": "2765",
        "region": "NSW",
        "c_internalALDIID": "1861",
        "c_locationName": "ALDI Marsden Park"
    },
    {
        "city": "Young",
        "line1": "11 Zouch St",
        "postcode": "2594",
        "region": "NSW",
        "c_internalALDIID": "0946",
        "c_locationName": "ALDI Young"
    },
    {
        "city": "Singleton",
        "line1": "17 John Street",
        "postcode": "2330",
        "region": "NSW",
        "c_internalALDIID": "1050",
        "c_locationName": "ALDI Singleton"
    },
    {
        "city": "Wyong",
        "line1": "146 - 148 Pacific Highway",
        "postcode": "2259",
        "region": "NSW",
        "c_internalALDIID": "0898",
        "c_locationName": "ALDI Wyong"
    },
    {
        "city": "Cranebrook",
        "line1": "Borrowdale Way 80 - 98",
        "postcode": "2749",
        "region": "NSW",
        "c_internalALDIID": "1648",
        "c_locationName": "ALDI Cranebrook"
    },
    {
        "city": "Liverpool",
        "line1": "Hoxton Park Road 82",
        "postcode": "2170",
        "region": "NSW",
        "c_internalALDIID": "0045",
        "c_locationName": "ALDI Liverpool"
    }
]