{
  "metadata": {
    "state": "QLD",
    "store_count": 222
  },
  "Stores": [
    {
      "Division": "SUPERMARKETS",
      "Name": "Acacia Ridge",
      "AddressLine1": "1150 Beaudesert Road",
      "Suburb": "Acacia Ridge",
      "State": "QLD",
      "Postcode": "4110"
    },
    {
      "Division": "SUPERMARKETS",
      "Name": "Albany Creek",
      "AddressLine1": "Cnr Old Northern Road And Albany Forest Drive",
      "Suburb": "Albany Creek",
      "State": "QLD",
      "Postcode": "4035"
    },
    {
      "Division": "SUPERMARKETS",
      "Name": "Alexandra Hills",
      "AddressLine1": "71 Cambridge Drive",
      "Suburb": "Alexandra Hills",
      "State": "QLD",
      "Postcode": "4161"
    },
    {
      "Division": "SUPERMARKETS",
      "Name": "Allenstown (Rockhampton)",
      "AddressLine1": "Cnr Caroline And Upper Dawson Road",
      "Suburb": "Rockhampton",
      "State": "QLD",
      "Postcode": "4700"
    },
    {
      "Division": "SUPERMARKETS",
      "Name": "Ann St Metro",
      "AddressLine1": "255 Ann St",
      "Suburb": "Brisbane",
      "State": "QLD",
      "Postcode": "4000"
    },
    {
      "Division": "SUPERMARKETS",
      "Name": "Annerley",
      "AddressLine1": "504 Ipswich Road",
      "Suburb": "Annerley",
      "State": "QLD",
      "Postcode": "4103"
    },
    {
      "Division": "SUPERMARKETS",
      "Name": "Ascot BRC",
      "AddressLine1": "188 Nudgee Road",
      "Suburb": "Ascot",
      "State": "QLD",
      "Postcode": "4007"
    },
    {
      "Division": "SUPERMARKETS",
      "Name": "Ashgrove",
      "AddressLine1": "16 Ashgrove Avenue",
      "Suburb": "Ashgrove",
      "State": "QLD",
      "Postcode": "4060"
    },
    {
      "Division": "SUPERMARKETS",
      "Name": "Ashmore",
      "AddressLine1": "160 Cotlew Street",
      "Suburb": "Ashmore",
      "State": "QLD",
      "Postcode": "4214"
    },
    {
      "Division": "SUPERMARKETS",
      "Name": "Aspley",
      "AddressLine1": "59 Albany Creek Rd",
      "Suburb": "Aspley",
      "State": "QLD",
      "Postcode": "4034"
    },
    {
      "Division": "SUPERMARKETS",
      "Name": "Australia Fair (Southport)",
      "AddressLine1": "42 Marine Parade",
      "Suburb": "Southport",
      "State": "QLD",
      "Postcode": "4215"
    },
    {
      "Division": "SUPERMARKETS",
      "Name": "Banksia Beach",
      "AddressLine1": "Cnr Sunderland Dr & Botany Cres",
      "Suburb": "Banksia Beach",
      "State": "QLD",
      "Postcode": "4507"
    },
    {
      "Division": "SUPERMARKETS",
      "Name": "Bannockburn",
      "AddressLine1": "9 Bannockburn Road",
      "Suburb": "Bannockburn",
      "State": "QLD",
      "Postcode": "4207"
    },
    {
      "Division": "SUPERMARKETS",
      "Name": "Banyo",
      "AddressLine1": "279 Tufnell Road",
      "Suburb": "Banyo",
      "State": "QLD",
      "Postcode": "4014"
    },
    {
      "Division": "SUPERMARKETS",
      "Name": "Bargara",
      "AddressLine1": "Bargara Central, Davidson Street & Bargara Road",
      "Suburb": "Bargara",
      "State": "QLD",
      "Postcode": "4670"
    },
    {
      "Division": "SUPERMARKETS",
      "Name": "Beaudesert",
      "AddressLine1": "125-139 Brisbane Street",
      "Suburb": "Beaudesert",
      "State": "QLD",
      "Postcode": "4285"
    },
    {
      "Division": "SUPERMARKETS",
      "Name": "Beenleigh",
      "AddressLine1": "Beenleigh Market Place, 114-118 George Street",
      "Suburb": "Beenleigh",
      "State": "QLD",
      "Postcode": "4207"
    },
    {
      "Division": "SUPERMARKETS",
      "Name": "Beerwah",
      "AddressLine1": "5 Peachester Road",
      "Suburb": "Beerwah",
      "State": "QLD",
      "Postcode": "4519"
    },
    {
      "Division": "SUPERMARKETS",
      "Name": "Bellmere",
      "AddressLine1": "96 - 110 Bellmere Rd",
      "Suburb": "Bellmere",
      "State": "QLD",
      "Postcode": "4510"
    },
    {
      "Division": "SUPERMARKETS",
      "Name": "Belmont (Metro)",
      "AddressLine1": "185 Belmont Rd, Belmont, QLD, 4153",
      "Suburb": "Belmont",
      "State": "QLD",
      "Postcode": "4153"
    },
    {
      "Division": "SUPERMARKETS",
      "Name": "Biloela",
      "AddressLine1": "Biloela Square, Cnr Gladstone & Kariboe Street",
      "Suburb": "Biloela",
      "State": "QLD",
      "Postcode": "4715"
    },
    {
      "Division": "SUPERMARKETS",
      "Name": "Birkdale",
      "AddressLine1": "Birkdale Fair Shopping Centre, Cnr Birkdale Road And Mary Pleasant Drive",
      "Suburb": "Birkdale",
      "State": "QLD",
      "Postcode": "4159"
    },
    {
      "Division": "SUPERMARKETS",
      "Name": "Blackwater",
      "AddressLine1": "Town Centre, 8 Blain Street",
      "Suburb": "Blackwater",
      "State": "QLD",
      "Postcode": "4717"
    },
    {
      "Division": "SUPERMARKETS",
      "Name": "Booval",
      "AddressLine1": "Cnr Brisbane Road and Station Road",
      "Suburb": "Booval",
      "State": "QLD",
      "Postcode": "4304"
    },
    {
      "Division": "SUPERMARKETS",
      "Name": "Boyne Island",
      "AddressLine1": "Boyne Plaza, Cnr Wyndham Avenue And Centenary Drive",
      "Suburb": "Boyne Island",
      "State": "QLD",
      "Postcode": "4680"
    },
    {
      "Division": "SUPERMARKETS",
      "Name": "Bracken Ridge",
      "AddressLine1": "154 Barrett Street",
      "Suburb": "Bracken Ridge",
      "State": "QLD",
      "Postcode": "4017"
    },
    {
      "Division": "SUPERMARKETS",
      "Name": "Brassall",
      "AddressLine1": "66 Hunter Street",
      "Suburb": "Brassall",
      "State": "QLD",
      "Postcode": "4305"
    },
    {
      "Division": "SUPERMARKETS",
      "Name": "Bribie Island",
      "AddressLine1": "Cnr Goodwin Drive And Hornsby Road",
      "Suburb": "Bribie Island",
      "State": "QLD",
      "Postcode": "4507"
    },
    {
      "Division": "SUPERMARKETS",
      "Name": "Broadwater (Metro)",
      "AddressLine1": "48 Brighton Parade",
      "Suburb": "Southport",
      "State": "QLD",
      "Postcode": "4215"
    },
    {
      "Division": "SUPERMARKETS",
      "Name": "Brookside (Mitchelton)",
      "AddressLine1": "159 Osborne Road",
      "Suburb": "Michelton",
      "State": "QLD",
      "Postcode": "4053"
    },
    {
      "Division": "SUPERMARKETS",
      "Name": "Brookwater",
      "AddressLine1": "2 Tournament Drive",
      "Suburb": "Brookwater",
      "State": "QLD",
      "Postcode": "4300"
    },
    {
      "Division": "SUPERMARKETS",
      "Name": "Browns Plains",
      "AddressLine1": "27-49 Browns Plains Road",
      "Suburb": "Browns Plains",
      "State": "QLD",
      "Postcode": "4118"
    },
    {
      "Division": "SUPERMARKETS",
      "Name": "Browns Plains Westpoint",
      "AddressLine1": "8-24 Browns Plains Road",
      "Suburb": "Browns Plains",
      "State": "QLD",
      "Postcode": "4118"
    },
    {
      "Division": "SUPERMARKETS",
      "Name": "Buderim (Metro)",
      "AddressLine1": "Buderim Market Pl, Burnett St",
      "Suburb": "Buderim",
      "State": "QLD",
      "Postcode": "4556"
    },
    {
      "Division": "SUPERMARKETS",
      "Name": "Bulimba",
      "AddressLine1": "Cnr Oxford And Duke Street",
      "Suburb": "Bulimba",
      "State": "QLD",
      "Postcode": "4171"
    },
    {
      "Division": "SUPERMARKETS",
      "Name": "Bundaberg",
      "AddressLine1": "16 Maryborough Street",
      "Suburb": "Bundaberg",
      "State": "QLD",
      "Postcode": "4670"
    },
    {
      "Division": "SUPERMARKETS",
      "Name": "Buranda",
      "AddressLine1": "264 Ipswich Road",
      "Suburb": "Buranda",
      "State": "QLD",
      "Postcode": "4102"
    },
    {
      "Division": "SUPERMARKETS",
      "Name": "Burleigh Heads",
      "AddressLine1": "149 West Burleigh Road",
      "Suburb": "Burleigh Heads",
      "State": "QLD",
      "Postcode": "4220"
    },
    {
      "Division": "SUPERMARKETS",
      "Name": "Burleigh Heads North (Metro)",
      "AddressLine1": "15-17 Park Avenue",
      "Suburb": "Burleigh Heads",
      "State": "QLD",
      "Postcode": "4220"
    },
    {
      "Division": "SUPERMARKETS",
      "Name": "Burpengary",
      "AddressLine1": "167 Station Road",
      "Suburb": "Burpengary",
      "State": "QLD",
      "Postcode": "4505"
    },
    {
      "Division": "SUPERMARKETS",
      "Name": "Caboolture South",
      "AddressLine1": "62 Morayfield Road, Cnr Market Drive",
      "Suburb": "Morayfield",
      "State": "QLD",
      "Postcode": "4510"
    },
    {
      "Division": "SUPERMARKETS",
      "Name": "Calamvale",
      "AddressLine1": "2625 Beaudesert Road",
      "Suburb": "Calamvale",
      "State": "QLD",
      "Postcode": "4116"
    },
    {
      "Division": "SUPERMARKETS",
      "Name": "Calamvale North",
      "AddressLine1": "678 Compton Road",
      "Suburb": "Calamvale",
      "State": "QLD",
      "Postcode": "4116"
    },
    {
      "Division": "SUPERMARKETS",
      "Name": "Caloundra",
      "AddressLine1": "20 Bowman Road",
      "Suburb": "Caloundra",
      "State": "QLD",
      "Postcode": "4551"
    },
    {
      "Division": "SUPERMARKETS",
      "Name": "Camp Hill",
      "AddressLine1": "Cnr Ara And Thomas Street",
      "Suburb": "Camp Hill",
      "State": "QLD",
      "Postcode": "4152"
    },
    {
      "Division": "SUPERMARKETS",
      "Name": "Cannon Hill",
      "AddressLine1": "1145 Wynnum Road",
      "Suburb": "Cannon Hill",
      "State": "QLD",
      "Postcode": "4170"
    },
    {
      "Division": "SUPERMARKETS",
      "Name": "Capalaba",
      "AddressLine1": "Capalaba Central, Cnr Old Cleveland And Moreton Bay Roads",
      "Suburb": "Capalaba",
      "State": "QLD",
      "Postcode": "4157"
    },
    {
      "Division": "SUPERMARKETS",
      "Name": "Capalaba Park",
      "AddressLine1": "Cnr Redland Bay And Mount Cotton Roads",
      "Suburb": "Capalaba",
      "State": "QLD",
      "Postcode": "4157"
    },
    {
      "Division": "SUPERMARKETS",
      "Name": "Carindale",
      "AddressLine1": "1151 Creek Road",
      "Suburb": "Carindale",
      "State": "QLD",
      "Postcode": "4152"
    },
    {
      "Division": "SUPERMARKETS",
      "Name": "Carrara",
      "AddressLine1": "54 Manchester Road",
      "Suburb": "Carrara",
      "State": "QLD",
      "Postcode": "4211"
    },
    {
      "Division": "SUPERMARKETS",
      "Name": "Carseldine",
      "AddressLine1": "735 Beams Road",
      "Suburb": "Carseldine",
      "State": "QLD",
      "Postcode": "4034"
    },
    {
      "Division": "SUPERMARKETS",
      "Name": "Central Lakes",
      "AddressLine1": "Cnr Mckean St And Pettigrew St",
      "Suburb": "Caboolture",
      "State": "QLD",
      "Postcode": "4510"
    },
    {
      "Division": "SUPERMARKETS",
      "Name": "Chancellor Park",
      "AddressLine1": "18 University Way",
      "Suburb": "Sippy Downs",
      "State": "QLD",
      "Postcode": "4556"
    },
    {
      "Division": "SUPERMARKETS",
      "Name": "Chatswood Hills",
      "AddressLine1": "Cnr Chatswood Road And Magellan Street",
      "Suburb": "Daisy Hill",
      "State": "QLD",
      "Postcode": "4127"
    },
    {
      "Division": "SUPERMARKETS",
      "Name": "Chermside Central",
      "AddressLine1": "395 Gympie Road",
      "Suburb": "Chermside",
      "State": "QLD",
      "Postcode": "4032"
    },
    {
      "Division": "SUPERMARKETS",
      "Name": "Chermside Marketplace",
      "AddressLine1": "Chermside Market Shopping Centre, Cnr Webster And Gympie Roads",
      "Suburb": "Chermside",
      "State": "QLD",
      "Postcode": "4032"
    },
    {
      "Division": "SUPERMARKETS",
      "Name": "Childers",
      "AddressLine1": "111-115 Churchill Street",
      "Suburb": "Childers",
      "State": "QLD",
      "Postcode": "4660"
    },
    {
      "Division": "SUPERMARKETS",
      "Name": "Chinchilla",
      "AddressLine1": "16-20 Bell Street",
      "Suburb": "Chinchilla",
      "State": "QLD",
      "Postcode": "4413"
    },
    {
      "Division": "SUPERMARKETS",
      "Name": "Cleveland",
      "AddressLine1": "91 Middle Street",
      "Suburb": "Cleveland",
      "State": "QLD",
      "Postcode": "4163"
    },
    {
      "Division": "SUPERMARKETS",
      "Name": "Clifford Gardens (Toowoomba)",
      "AddressLine1": "Cnr Anzac Avenue And James Street",
      "Suburb": "Toowoomba",
      "State": "QLD",
      "Postcode": "4350"
    },
    {
      "Division": "SUPERMARKETS",
      "Name": "Collingwood Park",
      "AddressLine1": "157 Collingwood Drive",
      "Suburb": "Collingwood Park",
      "State": "QLD",
      "Postcode": "4301"
    },
    {
      "Division": "SUPERMARKETS",
      "Name": "Coolangatta",
      "AddressLine1": "72-80 Marine Parade",
      "Suburb": "Coolangatta",
      "State": "QLD",
      "Postcode": "4225"
    },
    {
      "Division": "SUPERMARKETS",
      "Name": "Cooloola",
      "AddressLine1": "Cnr Nautilus  And Queen Elizabeth Drives",
      "Suburb": "Cooloola Cove",
      "State": "QLD",
      "Postcode": "4580"
    },
    {
      "Division": "SUPERMARKETS",
      "Name": "Coolum",
      "AddressLine1": "South Coolum Road",
      "Suburb": "Coolum Beach",
      "State": "QLD",
      "Postcode": "4573"
    },
    {
      "Division": "SUPERMARKETS",
      "Name": "Coomera East",
      "AddressLine1": "Cnr Foxwell Rd & Oakey Creek Rd",
      "Suburb": "Coomera",
      "State": "QLD",
      "Postcode": "4209"
    },
    {
      "Division": "SUPERMARKETS",
      "Name": "Coomera West",
      "AddressLine1": "31 Kristins Lane",
      "Suburb": "West Coomera",
      "State": "QLD",
      "Postcode": "4209"
    },
    {
      "Division": "SUPERMARKETS",
      "Name": "Coomera Westfield",
      "AddressLine1": "121 Foxwell Rd",
      "Suburb": "Coomera Town Centre",
      "State": "QLD",
      "Postcode": "4209"
    },
    {
      "Division": "SUPERMARKETS",
      "Name": "Coorparoo",
      "AddressLine1": "41 Harries Road",
      "Suburb": "Coorparoo",
      "State": "QLD",
      "Postcode": "4151"
    },
    {
      "Division": "SUPERMARKETS",
      "Name": "Cornubia",
      "AddressLine1": "Cnr Bryants Rd & Beenleigh-Redland Bay Rd",
      "Suburb": "Cornubia",
      "State": "QLD",
      "Postcode": "4130"
    },
    {
      "Division": "SUPERMARKETS",
      "Name": "Currimundi",
      "AddressLine1": "Cnr Bellara Drive And Nicklin Way",
      "Suburb": "Currimundi",
      "State": "QLD",
      "Postcode": "4551"
    },
    {
      "Division": "SUPERMARKETS",
      "Name": "Dakabin",
      "AddressLine1": "Cnr Old Gympie Road and Alma Road",
      "Suburb": "Dakabin",
      "State": "QLD",
      "Postcode": "4503"
    },
    {
      "Division": "SUPERMARKETS",
      "Name": "Dalby",
      "AddressLine1": "17-67 Cunningham Street",
      "Suburb": "Dalby",
      "State": "QLD",
      "Postcode": "4405"
    },
    {
      "Division": "SUPERMARKETS",
      "Name": "Darra",
      "AddressLine1": "166 Monier Road",
      "Suburb": "Darra",
      "State": "QLD",
      "Postcode": "4076"
    },
    {
      "Division": "SUPERMARKETS",
      "Name": "Deception Bay",
      "AddressLine1": "Deception Bay Marketplace, 1 Bay Avenue",
      "Suburb": "Deception Bay",
      "State": "QLD",
      "Postcode": "4508"
    },
    {
      "Division": "SUPERMARKETS",
      "Name": "Doolandella",
      "AddressLine1": "943 Blunder Road",
      "Suburb": "Doolandella",
      "State": "QLD",
      "Postcode": "4077"
    },
    {
      "Division": "SUPERMARKETS",
      "Name": "Eatons Hill",
      "AddressLine1": "640 South Pine Road",
      "Suburb": "Brendale",
      "State": "QLD",
      "Postcode": "4500"
    },
    {
      "Division": "SUPERMARKETS",
      "Name": "Eight Mile Plains",
      "AddressLine1": "261 Warrigal Road",
      "Suburb": "Eight Mile Plains",
      "State": "QLD",
      "Postcode": "4113"
    },
    {
      "Division": "SUPERMARKETS",
      "Name": "Elanora Pines",
      "AddressLine1": "Cnr Guineas Creek Road & K P McGrath Drive",
      "Suburb": "Elanora",
      "State": "QLD",
      "Postcode": "4221"
    },
    {
      "Division": "SUPERMARKETS",
      "Name": "Eli Waters",
      "AddressLine1": "Cnr Ibis Boulevard And Maryborough Road",
      "Suburb": "Eli Waters",
      "State": "QLD",
      "Postcode": "4655"
    },
    {
      "Division": "SUPERMARKETS",
      "Name": "Emerald Centro",
      "AddressLine1": "Hospital Road",
      "Suburb": "Emerald",
      "State": "QLD",
      "Postcode": "4720"
    },
    {
      "Division": "SUPERMARKETS",
      "Name": "Emerald East",
      "AddressLine1": "2-10 Codenwarra Rd",
      "Suburb": "Emerald East",
      "State": "QLD",
      "Postcode": "4720"
    },
    {
      "Division": "SUPERMARKETS",
      "Name": "Everton Park",
      "AddressLine1": "768 Stafford Road",
      "Suburb": "Everton Park",
      "State": "QLD",
      "Postcode": "4053"
    },
    {
      "Division": "SUPERMARKETS",
      "Name": "Fernvale",
      "AddressLine1": "1455 Brisbane Valley Highway",
      "Suburb": "Fernvale",
      "State": "QLD",
      "Postcode": "4306"
    },
    {
      "Division": "SUPERMARKETS",
      "Name": "Fish Lane (Metro)",
      "AddressLine1": "Shop 1, 49 Melbourne Street, South Brisbane",
      "Suburb": "South Brisbane",
      "State": "QLD",
      "Postcode": "4101"
    },
    {
      "Division": "SUPERMARKETS",
      "Name": "Flagstone",
      "AddressLine1": "Cnr Bushman Drive & Homestead Drive",
      "Suburb": "Flagstone",
      "State": "QLD",
      "Postcode": "4344"
    },
    {
      "Division": "SUPERMARKETS",
      "Name": "Forest Lake",
      "AddressLine1": "235 Forest Lake Boulevard",
      "Suburb": "Forest Lake",
      "State": "QLD",
      "Postcode": "4078"
    },
    {
      "Division": "SUPERMARKETS",
      "Name": "Fortitude Valley (Metro)",
      "AddressLine1": "CNR Alfred and Brunswick St",
      "Suburb": "Fortitude Valley",
      "State": "QLD",
      "Postcode": "4006"
    },
    {
      "Division": "SUPERMARKETS",
      "Name": "Garden City (Upper Mt Gravatt)",
      "AddressLine1": "2049 Logan Road",
      "Suburb": "Upper Mt Gravatt",
      "State": "QLD",
      "Postcode": "4122"
    },
    {
      "Division": "SUPERMARKETS",
      "Name": "Gladstone Valley",
      "AddressLine1": "Cnr Oaka Ln & Herbert Street",
      "Suburb": "Gladstone",
      "State": "QLD",
      "Postcode": "4680"
    },
    {
      "Division": "SUPERMARKETS",
      "Name": "Goodna",
      "AddressLine1": "St Ives Shopping Centre, 2 Smith Road",
      "Suburb": "Goodna",
      "State": "QLD",
      "Postcode": "4300"
    },
    {
      "Division": "SUPERMARKETS",
      "Name": "Gracemere",
      "AddressLine1": "Shop 90 Gracemere Shopping World, Cnr Capricorn Hwy & McLaughlin St",
      "Suburb": "Gracemere",
      "State": "QLD",
      "Postcode": "4702"
    },
    {
      "Division": "SUPERMARKETS",
      "Name": "Greenbank",
      "AddressLine1": "Cnr Pub Lane And Teviot Road",
      "Suburb": "Greenbank",
      "State": "QLD",
      "Postcode": "4124"
    },
    {
      "Division": "SUPERMARKETS",
      "Name": "Gympie",
      "AddressLine1": "Cnr Excelsior And Perserverance Streets",
      "Suburb": "Gympie",
      "State": "QLD",
      "Postcode": "4570"
    },
    {
      "Division": "SUPERMARKETS",
      "Name": "Gympie Southside",
      "AddressLine1": "Cnr Ramsey Road & Woolgar Road",
      "Suburb": "Gympie",
      "State": "QLD",
      "Postcode": "4570"
    },
    {
      "Division": "SUPERMARKETS",
      "Name": "Hamilton Harbour (Metro)",
      "AddressLine1": "485 Kingsford Smith Dr",
      "Suburb": "Hamilton",
      "State": "QLD",
      "Postcode": "4007"
    },
    {
      "Division": "SUPERMARKETS",
      "Name": "Harbourtown (Biggera Waters)",
      "AddressLine1": "Cnr Oxley Road And Gold Coast Highway",
      "Suburb": "Biggera Waters",
      "State": "QLD",
      "Postcode": "4216"
    },
    {
      "Division": "SUPERMARKETS",
      "Name": "Helensvale",
      "AddressLine1": "1-29 Millaroo Drive",
      "Suburb": "Helensvale",
      "State": "QLD",
      "Postcode": "4212"
    },
    {
      "Division": "SUPERMARKETS",
      "Name": "Hervey Bay",
      "AddressLine1": "Cnr Torquay And Taylor Streets",
      "Suburb": "Hervey Bay",
      "State": "QLD",
      "Postcode": "4655"
    },
    {
      "Division": "SUPERMARKETS",
      "Name": "Highfields",
      "AddressLine1": "Highfield Village Shopping Centre, Cnr O'Brien And Highfields Roads",
      "Suburb": "Highfields",
      "State": "QLD",
      "Postcode": "4352"
    },
    {
      "Division": "SUPERMARKETS",
      "Name": "Holmview",
      "AddressLine1": "Crn Logan River Road and Gardiner Road",
      "Suburb": "Holmview",
      "State": "QLD",
      "Postcode": "4207"
    },
    {
      "Division": "SUPERMARKETS",
      "Name": "Hope Island",
      "AddressLine1": "1 Marina Quays Blvd",
      "Suburb": "Hope Island",
      "State": "QLD",
      "Postcode": "4212"
    },
    {
      "Division": "SUPERMARKETS",
      "Name": "Inala",
      "AddressLine1": "Civic Centre, Cnr Kittyhawke And Corsair Streets",
      "Suburb": "Inala",
      "State": "QLD",
      "Postcode": "4077"
    },
    {
      "Division": "SUPERMARKETS",
      "Name": "Indooroopilly",
      "AddressLine1": "Cnr Moggill Rd & Stamford Rd",
      "Suburb": "Indooroopilly",
      "State": "QLD",
      "Postcode": "4068"
    },
    {
      "Division": "SUPERMARKETS",
      "Name": "Ipswich Riverlink",
      "AddressLine1": "Cnr Pine Street And The Terrace",
      "Suburb": "Ipswich",
      "State": "QLD",
      "Postcode": "4305"
    },
    {
      "Division": "SUPERMARKETS",
      "Name": "Jimboomba",
      "AddressLine1": "Cnr Cusack Lane And Johanna Street",
      "Suburb": "Jimboomba",
      "State": "QLD",
      "Postcode": "4280"
    },
    {
      "Division": "SUPERMARKETS",
      "Name": "Kallangur Fair",
      "AddressLine1": "1473 Anzac Avenue",
      "Suburb": "Kallangur",
      "State": "QLD",
      "Postcode": "4503"
    },
    {
      "Division": "SUPERMARKETS",
      "Name": "Karalee",
      "AddressLine1": "Cnr Junction Road And Langlands Street",
      "Suburb": "Karalee",
      "State": "QLD",
      "Postcode": "4306"
    },
    {
      "Division": "SUPERMARKETS",
      "Name": "Kawana Waters (Buddina)",
      "AddressLine1": "119 Point Cartwright Drive",
      "Suburb": "Buddina",
      "State": "QLD",
      "Postcode": "4575"
    },
    {
      "Division": "SUPERMARKETS",
      "Name": "Kearneys Spring",
      "AddressLine1": "445-455 Hume Street",
      "Suburb": "Toowoomba",
      "State": "QLD",
      "Postcode": "4350"
    },
    {
      "Division": "SUPERMARKETS",
      "Name": "Kelvin Grove (Metro)",
      "AddressLine1": "57 Musk Ave",
      "Suburb": "Kelvin Grove",
      "State": "QLD",
      "Postcode": "4059"
    },
    {
      "Division": "SUPERMARKETS",
      "Name": "Kenmore",
      "AddressLine1": "Kenmore Tavern Plaza, 841 Moggill Road",
      "Suburb": "Kenmore",
      "State": "QLD",
      "Postcode": "4069"
    },
    {
      "Division": "SUPERMARKETS",
      "Name": "Keperra",
      "AddressLine1": "1028 Samford Road",
      "Suburb": "Keperra",
      "State": "QLD",
      "Postcode": "4054"
    },
    {
      "Division": "SUPERMARKETS",
      "Name": "Kepnock",
      "AddressLine1": "106 FE Walker St",
      "Suburb": "Kepnock",
      "State": "QLD",
      "Postcode": "4670"
    },
    {
      "Division": "SUPERMARKETS",
      "Name": "Kin Kora (Gladstone)",
      "AddressLine1": "Cnr Dawson Highway And Phillip Street",
      "Suburb": "Gladstone",
      "State": "QLD",
      "Postcode": "4680"
    },
    {
      "Division": "SUPERMARKETS",
      "Name": "Kingaroy",
      "AddressLine1": "Youngman Street",
      "Suburb": "Kingaroy",
      "State": "QLD",
      "Postcode": "4610"
    },
    {
      "Division": "SUPERMARKETS",
      "Name": "Kippa Ring",
      "AddressLine1": "Kippa Ring Shopping Centre, 284 Anzac Avenue",
      "Suburb": "Kippa Ring",
      "State": "QLD",
      "Postcode": "4021"
    },
    {
      "Division": "SUPERMARKETS",
      "Name": "Kirkwood",
      "AddressLine1": "Cnr Dixon Drive & Kirkwood Rd",
      "Suburb": "Kirkwood",
      "State": "QLD",
      "Postcode": "4680"
    },
    {
      "Division": "SUPERMARKETS",
      "Name": "Logan Central",
      "AddressLine1": "Cnr Kingston And Wembley Roads",
      "Suburb": "Woodridge",
      "State": "QLD",
      "Postcode": "4114"
    },
    {
      "Division": "SUPERMARKETS",
      "Name": "Logan Reserve",
      "AddressLine1": "450-458 Chambers Flat Road",
      "Suburb": "Logan Reserve",
      "State": "QLD",
      "Postcode": "4133"
    },
    {
      "Division": "SUPERMARKETS",
      "Name": "Logan Village",
      "AddressLine1": "Cnr North & Albert Streets",
      "Suburb": "Logan Village",
      "State": "QLD",
      "Postcode": "4207"
    },
    {
      "Division": "SUPERMARKETS",
      "Name": "Loganholme",
      "AddressLine1": "Cnr Bryants Rd & Pacific Hwy",
      "Suburb": "Shailer Park",
      "State": "QLD",
      "Postcode": "4129"
    },
    {
      "Division": "SUPERMARKETS",
      "Name": "Lutwyche",
      "AddressLine1": "Lutwyche City Shopping Centre 543 Lutwyche Road",
      "Suburb": "Lutwyche",
      "State": "QLD",
      "Postcode": "4030"
    },
    {
      "Division": "SUPERMARKETS",
      "Name": "Macarthur Central",
      "AddressLine1": "259 Queen Street",
      "Suburb": "Brisbane",
      "State": "QLD",
      "Postcode": "4000"
    },
    {
      "Division": "SUPERMARKETS",
      "Name": "Maleny",
      "AddressLine1": "2 Bunya Street",
      "Suburb": "Maleny",
      "State": "QLD",
      "Postcode": "4552"
    },
    {
      "Division": "SUPERMARKETS",
      "Name": "Manly West",
      "AddressLine1": "Cnr Manly And Hargreaves Roads",
      "Suburb": "Manly",
      "State": "QLD",
      "Postcode": "4179"
    },
    {
      "Division": "SUPERMARKETS",
      "Name": "Margate",
      "AddressLine1": "270 Oxley Avenue",
      "Suburb": "Margate",
      "State": "QLD",
      "Postcode": "4019"
    },
    {
      "Division": "SUPERMARKETS",
      "Name": "Maroochydore Big Top",
      "AddressLine1": "12-20 Ocean Street",
      "Suburb": "Maroochydore",
      "State": "QLD",
      "Postcode": "4558"
    },
    {
      "Division": "SUPERMARKETS",
      "Name": "Maroochydore Plaza",
      "AddressLine1": "Plaza Parade Sunshine Plaza Shopping Centre",
      "Suburb": "Maroochydore",
      "State": "QLD",
      "Postcode": "4558"
    },
    {
      "Division": "SUPERMARKETS",
      "Name": "Marsden Fifth Avenue",
      "AddressLine1": "Browns Plains Road and Fifth Avenue",
      "Suburb": "Marsden",
      "State": "QLD",
      "Postcode": "4132"
    },
    {
      "Division": "SUPERMARKETS",
      "Name": "Maryborough",
      "AddressLine1": "Cnr Sussex And Adelaide Street",
      "Suburb": "Maryborough",
      "State": "QLD",
      "Postcode": "4650"
    },
    {
      "Division": "SUPERMARKETS",
      "Name": "Meadowbrook",
      "AddressLine1": "Loganlea Road",
      "Suburb": "Meadowbrook",
      "State": "QLD",
      "Postcode": "4131"
    },
    {
      "Division": "SUPERMARKETS",
      "Name": "Mermaid Plaza (Metro)",
      "AddressLine1": "2400 Gold Coast HWY, Mermaid Beach, QLD, 4218",
      "Suburb": "Mermaid Beach",
      "State": "QLD",
      "Postcode": "4218"
    },
    {
      "Division": "SUPERMARKETS",
      "Name": "Mermaid Waters",
      "AddressLine1": "Gold Coast Super Centre, Cnr Bermuda And Makeri Streets",
      "Suburb": "Mermaid Waters",
      "State": "QLD",
      "Postcode": "4218"
    },
    {
      "Division": "SUPERMARKETS",
      "Name": "Montague Markets West End",
      "AddressLine1": "Cnr Montague Rd & Ferry Rd",
      "Suburb": "West End",
      "State": "QLD",
      "Postcode": "4101"
    },
    {
      "Division": "SUPERMARKETS",
      "Name": "Moorooka",
      "AddressLine1": "Cnr Beaudesert Road And Durack Street",
      "Suburb": "Moorooka",
      "State": "QLD",
      "Postcode": "4105"
    },
    {
      "Division": "SUPERMARKETS",
      "Name": "Morayfield",
      "AddressLine1": "165-175 Morayfield Road",
      "Suburb": "Morayfield",
      "State": "QLD",
      "Postcode": "4506"
    },
    {
      "Division": "SUPERMARKETS",
      "Name": "Morayshire",
      "AddressLine1": "Morayfield Supa Centre, 312-344 Morayfield Rd",
      "Suburb": "Morayfield",
      "State": "QLD",
      "Postcode": "4506"
    },
    {
      "Division": "SUPERMARKETS",
      "Name": "Morningside",
      "AddressLine1": "Cnr Wynnum And Junction Roads",
      "Suburb": "Morningside",
      "State": "QLD",
      "Postcode": "4170"
    },
    {
      "Division": "SUPERMARKETS",
      "Name": "Mountain Creek",
      "AddressLine1": "Cnr Karawatha Drive And Golf Links Road",
      "Suburb": "Mountain Creek",
      "State": "QLD",
      "Postcode": "4557"
    },
    {
      "Division": "SUPERMARKETS",
      "Name": "Mountain View (Mt Gravatt Plaza)",
      "AddressLine1": "Mt Gravatt Plaza, Cnr Creek And Logan Roads",
      "Suburb": "Mt Gravatt",
      "State": "QLD",
      "Postcode": "4122"
    },
    {
      "Division": "SUPERMARKETS",
      "Name": "Mt Ommaney",
      "AddressLine1": "171 Dandenong Road",
      "Suburb": "Mount Ommaney",
      "State": "QLD",
      "Postcode": "4074"
    },
    {
      "Division": "SUPERMARKETS",
      "Name": "Mudgeeraba",
      "AddressLine1": "Mudgeeraba Market Shopping Centre, 3 Swan Lane",
      "Suburb": "Mudgeeraba",
      "State": "QLD",
      "Postcode": "4213"
    },
    {
      "Division": "SUPERMARKETS",
      "Name": "Nambour",
      "AddressLine1": "Ann Street",
      "Suburb": "Nambour",
      "State": "QLD",
      "Postcode": "4560"
    },
    {
      "Division": "SUPERMARKETS",
      "Name": "Narangba",
      "AddressLine1": "Cnr Young Road And Golden Wattle Drive",
      "Suburb": "Narangba",
      "State": "QLD",
      "Postcode": "4504"
    },
    {
      "Division": "SUPERMARKETS",
      "Name": "Nerang",
      "AddressLine1": "Nerang Mall, Cnr New And Cayuga Streets",
      "Suburb": "Nerang",
      "State": "QLD",
      "Postcode": "4211"
    },
    {
      "Division": "SUPERMARKETS",
      "Name": "Newstead",
      "AddressLine1": "76 Skyring Terrace",
      "Suburb": "Newstead",
      "State": "QLD",
      "Postcode": "4006"
    },
    {
      "Division": "SUPERMARKETS",
      "Name": "Noosa",
      "AddressLine1": "Noosa Civic, 28 Eenie Creek Road",
      "Suburb": "Noosa Heads",
      "State": "QLD",
      "Postcode": "4567"
    },
    {
      "Division": "SUPERMARKETS",
      "Name": "Noosaville",
      "AddressLine1": "Cnr Gibson Road And Mary Street",
      "Suburb": "Noosaville",
      "State": "QLD",
      "Postcode": "4566"
    },
    {
      "Division": "SUPERMARKETS",
      "Name": "North Lakes",
      "AddressLine1": "Cnr Anzac Ave & North Lakes Drive",
      "Suburb": "North Lakes",
      "State": "QLD",
      "Postcode": "4509"
    },
    {
      "Division": "SUPERMARKETS",
      "Name": "North Rockhampton",
      "AddressLine1": "Rockhampton Stockland Shopping Centre, 331 Yaamba Road",
      "Suburb": "Rockhampton",
      "State": "QLD",
      "Postcode": "4701"
    },
    {
      "Division": "SUPERMARKETS",
      "Name": "North West Plaza",
      "AddressLine1": "97 Flockton Street",
      "Suburb": "Everton Park",
      "State": "QLD",
      "Postcode": "4053"
    },
    {
      "Division": "SUPERMARKETS",
      "Name": "Northside Plaza (Rockhampton North)",
      "AddressLine1": "222 Musgrave Street",
      "Suburb": "Rockhampton North",
      "State": "QLD",
      "Postcode": "4701"
    },
    {
      "Division": "SUPERMARKETS",
      "Name": "Nundah",
      "AddressLine1": "87 Buckland Road",
      "Suburb": "Nundah",
      "State": "QLD",
      "Postcode": "4012"
    },
    {
      "Division": "SUPERMARKETS",
      "Name": "Oasis (Broadbeach)",
      "AddressLine1": "The Oasis Shopping Centre, 75 Surf Parade",
      "Suburb": "Broadbeach",
      "State": "QLD",
      "Postcode": "4218"
    },
    {
      "Division": "SUPERMARKETS",
      "Name": "Ormeau",
      "AddressLine1": "19-21 Peachey Road",
      "Suburb": "Ormeau",
      "State": "QLD",
      "Postcode": "4208"
    },
    {
      "Division": "SUPERMARKETS",
      "Name": "Oxenford",
      "AddressLine1": "2 Cottonwood Place",
      "Suburb": "Oxenford",
      "State": "QLD",
      "Postcode": "4210"
    },
    {
      "Division": "SUPERMARKETS",
      "Name": "Oxley",
      "AddressLine1": "Oxley Station Road",
      "Suburb": "Oxley",
      "State": "QLD",
      "Postcode": "4075"
    },
    {
      "Division": "SUPERMARKETS",
      "Name": "Pacific Fair",
      "AddressLine1": "Pacific Fair Shopping Centre, Hooker Boulevard",
      "Suburb": "Broadbeach",
      "State": "QLD",
      "Postcode": "4218"
    },
    {
      "Division": "SUPERMARKETS",
      "Name": "Pacific Pines",
      "AddressLine1": "Cnr Pacific Pines Boulevard And Pitcairn Way",
      "Suburb": "Pacific Pines",
      "State": "QLD",
      "Postcode": "4211"
    },
    {
      "Division": "SUPERMARKETS",
      "Name": "Paddington",
      "AddressLine1": "107 Latrobe Terrace",
      "Suburb": "Paddington",
      "State": "QLD",
      "Postcode": "4064"
    },
    {
      "Division": "SUPERMARKETS",
      "Name": "Palm Waters",
      "AddressLine1": "Cnr Angelica Street And Nineteenth Avenue",
      "Suburb": "Palm Beach",
      "State": "QLD",
      "Postcode": "4221"
    },
    {
      "Division": "SUPERMARKETS",
      "Name": "Park Ridge",
      "AddressLine1": "3732-3744 Mount Lindesay Highway",
      "Suburb": "Park Ridge",
      "State": "QLD",
      "Postcode": "4125"
    },
    {
      "Division": "SUPERMARKETS",
      "Name": "Parkhurst",
      "AddressLine1": "810 Yaamba Road",
      "Suburb": "Parkhurst",
      "State": "QLD",
      "Postcode": "4702"
    },
    {
      "Division": "SUPERMARKETS",
      "Name": "Pelican Waters",
      "AddressLine1": "44 Pelican Waters Boulevard",
      "Suburb": "Pelican Waters",
      "State": "QLD",
      "Postcode": "4551"
    },
    {
      "Division": "SUPERMARKETS",
      "Name": "Petrie",
      "AddressLine1": "15 Dayboro Road",
      "Suburb": "Petrie",
      "State": "QLD",
      "Postcode": "4502"
    },
    {
      "Division": "SUPERMARKETS",
      "Name": "Pimpama",
      "AddressLine1": "Yawalpah and Dixon Roads",
      "Suburb": "Pimpama",
      "State": "QLD",
      "Postcode": "4209"
    },
    {
      "Division": "SUPERMARKETS",
      "Name": "Pittsworth",
      "AddressLine1": "122-126 Yandilla Street",
      "Suburb": "Pittsworth",
      "State": "QLD",
      "Postcode": "4356"
    },
    {
      "Division": "SUPERMARKETS",
      "Name": "Plainland",
      "AddressLine1": "3 Gehrke Road",
      "Suburb": "Plainland",
      "State": "QLD",
      "Postcode": "4341"
    },
    {
      "Division": "SUPERMARKETS",
      "Name": "Range (Toowoomba)",
      "AddressLine1": "11a James Street",
      "Suburb": "Toowoomba",
      "State": "QLD",
      "Postcode": "4350"
    },
    {
      "Division": "SUPERMARKETS",
      "Name": "Redbank Plains",
      "AddressLine1": "Cnr Redbank Plains And Keidges Rds",
      "Suburb": "Redbank Plains",
      "State": "QLD",
      "Postcode": "4301"
    },
    {
      "Division": "SUPERMARKETS",
      "Name": "Redbank Plains Mountview",
      "AddressLine1": "171-193 School Rd",
      "Suburb": "Redbank Plains",
      "State": "QLD",
      "Postcode": "4301"
    },
    {
      "Division": "SUPERMARKETS",
      "Name": "Redcliffe",
      "AddressLine1": "20 Anzac Avenue",
      "Suburb": "Redcliffe",
      "State": "QLD",
      "Postcode": "4020"
    },
    {
      "Division": "SUPERMARKETS",
      "Name": "Redland Bay",
      "AddressLine1": "Redland Bay Shopping Village, 133 Broadwater Terrace",
      "Suburb": "Redland Bay",
      "State": "QLD",
      "Postcode": "4165"
    },
    {
      "Division": "SUPERMARKETS",
      "Name": "Reedy Creek",
      "AddressLine1": "Cnr Kingsmore Boulevard & Old Coach Road",
      "Suburb": "Reedy Creek",
      "State": "QLD",
      "Postcode": "4227"
    },
    {
      "Division": "SUPERMARKETS",
      "Name": "Richlands",
      "AddressLine1": "495 Archerfield Road",
      "Suburb": "Richlands",
      "State": "QLD",
      "Postcode": "4077"
    },
    {
      "Division": "SUPERMARKETS",
      "Name": "Robina",
      "AddressLine1": "Robina Town Centre, Robina Town Centre Drive",
      "Suburb": "Robina",
      "State": "QLD",
      "Postcode": "4226"
    },
    {
      "Division": "SUPERMARKETS",
      "Name": "Robina North",
      "AddressLine1": "Robina Town Centre, Robina Town Centre Drive Level 2",
      "Suburb": "Robina",
      "State": "QLD",
      "Postcode": "4226"
    },
    {
      "Division": "SUPERMARKETS",
      "Name": "Rochedale CFC",
      "AddressLine1": "11 Interchange Place",
      "Suburb": "Rochedale",
      "State": "QLD",
      "Postcode": "4123"
    },
    {
      "Division": "SUPERMARKETS",
      "Name": "Rode Road (Metro)",
      "AddressLine1": "Rode Shopping Centre, 261 Appleby Rd, Stafford Heights QLD 4053",
      "Suburb": "Stafford Heights",
      "State": "QLD",
      "Postcode": "4053"
    },
    {
      "Division": "SUPERMARKETS",
      "Name": "Roma",
      "AddressLine1": "Cnr Wyndham And Bowen Streets",
      "Suburb": "Roma",
      "State": "QLD",
      "Postcode": "4455"
    },
    {
      "Division": "SUPERMARKETS",
      "Name": "Rothwell",
      "AddressLine1": "763 Deception Bay Road",
      "Suburb": "Rothwell",
      "State": "QLD",
      "Postcode": "4022"
    },
    {
      "Division": "SUPERMARKETS",
      "Name": "Runaway Bay",
      "AddressLine1": "10-12 Lae Drive",
      "Suburb": "Runaway Bay",
      "State": "QLD",
      "Postcode": "4216"
    },
    {
      "Division": "SUPERMARKETS",
      "Name": "Sandgate",
      "AddressLine1": "8 Lagoon Street",
      "Suburb": "Sandgate",
      "State": "QLD",
      "Postcode": "4017"
    },
    {
      "Division": "SUPERMARKETS",
      "Name": "Sherwood",
      "AddressLine1": "686 Sherwood Road",
      "Suburb": "Sherwood",
      "State": "QLD",
      "Postcode": "4075"
    },
    {
      "Division": "SUPERMARKETS",
      "Name": "Skygate (Brisbane Airport)",
      "AddressLine1": "Village Centre, 1 Airport Drive",
      "Suburb": "Brisbane Airport",
      "State": "QLD",
      "Postcode": "4007"
    },
    {
      "Division": "SUPERMARKETS",
      "Name": "Smith Collective",
      "AddressLine1": "Cnr Von Itzstein St & Knowledge St",
      "Suburb": "Southport",
      "State": "QLD",
      "Postcode": "4215"
    },
    {
      "Division": "SUPERMARKETS",
      "Name": "South/City/SQ Woolloongabba",
      "AddressLine1": "148 Logan Road",
      "Suburb": "Woolloongabba",
      "State": "QLD",
      "Postcode": "4102"
    },
    {
      "Division": "SUPERMARKETS",
      "Name": "Southpoint Metro",
      "AddressLine1": "217 Grey St",
      "Suburb": "South Brisbane",
      "State": "QLD",
      "Postcode": "4101"
    },
    {
      "Division": "SUPERMARKETS",
      "Name": "Southport Park",
      "AddressLine1": "Cnr Ferry Road And Benowa Street",
      "Suburb": "Southport",
      "State": "QLD",
      "Postcode": "4215"
    },
    {
      "Division": "SUPERMARKETS",
      "Name": "Spring Hill (Metro)",
      "AddressLine1": "365 Turbot St",
      "Suburb": "Spring Hill",
      "State": "QLD",
      "Postcode": "4000"
    },
    {
      "Division": "SUPERMARKETS",
      "Name": "Springfield",
      "AddressLine1": "Springfield Shopping Centre, 1 Main Street",
      "Suburb": "Springfield",
      "State": "QLD",
      "Postcode": "4300"
    },
    {
      "Division": "SUPERMARKETS",
      "Name": "Springwood",
      "AddressLine1": "34 Fitzgerald Avenue",
      "Suburb": "Springwood",
      "State": "QLD",
      "Postcode": "4127"
    },
    {
      "Division": "SUPERMARKETS",
      "Name": "Stafford",
      "AddressLine1": "400 Stafford Road",
      "Suburb": "Stafford",
      "State": "QLD",
      "Postcode": "4053"
    },
    {
      "Division": "SUPERMARKETS",
      "Name": "Stanthorpe",
      "AddressLine1": "Cnr Lock And High Streets",
      "Suburb": "Stanthorpe",
      "State": "QLD",
      "Postcode": "4380"
    },
    {
      "Division": "SUPERMARKETS",
      "Name": "Strathpine",
      "AddressLine1": "Westfield Shopping Centre, 295 Gympie Road",
      "Suburb": "Strathpine",
      "State": "QLD",
      "Postcode": "4500"
    },
    {
      "Division": "SUPERMARKETS",
      "Name": "Sugarland (Bundaberg)",
      "AddressLine1": "115-119 Takalvan Street",
      "Suburb": "Bundaberg",
      "State": "QLD",
      "Postcode": "4670"
    },
    {
      "Division": "SUPERMARKETS",
      "Name": "Sunnybank",
      "AddressLine1": "Sunny Park Shopping Centre, Cnr Mains Road And Mccullough Street",
      "Suburb": "Sunnybank",
      "State": "QLD",
      "Postcode": "4109"
    },
    {
      "Division": "SUPERMARKETS",
      "Name": "Sunnybank Hills",
      "AddressLine1": "Sunnybank Hills Shopping Centre, Cnr Calam And Compton Roads",
      "Suburb": "Sunnybank Hills",
      "State": "QLD",
      "Postcode": "4109"
    },
    {
      "Division": "SUPERMARKETS",
      "Name": "Surfers Paradise",
      "AddressLine1": "Cnr Sunshine Coast Blvd And Hanlan St",
      "Suburb": "Surfers Paradise",
      "State": "QLD",
      "Postcode": "4217"
    },
    {
      "Division": "SUPERMARKETS",
      "Name": "Surfers Paradise (Circle on Cavill)",
      "AddressLine1": "Gold Coast Hwy & Cavill Avenue",
      "Suburb": "Surfers Paradise",
      "State": "QLD",
      "Postcode": "4217"
    },
    {
      "Division": "SUPERMARKETS",
      "Name": "Taigum",
      "AddressLine1": "217 Beams Road",
      "Suburb": "Taigum",
      "State": "QLD",
      "Postcode": "4018"
    },
    {
      "Division": "SUPERMARKETS",
      "Name": "Tank St (Metro)",
      "AddressLine1": "414 George St",
      "Suburb": "Brisbane",
      "State": "QLD",
      "Postcode": "4000"
    },
    {
      "Division": "SUPERMARKETS",
      "Name": "Teneriffe Metro",
      "AddressLine1": "105 - 109 Commercial Rd",
      "Suburb": "Teneriffe",
      "State": "QLD",
      "Postcode": "4005"
    },
    {
      "Division": "SUPERMARKETS",
      "Name": "Tewantin",
      "AddressLine1": "Blakesley Street",
      "Suburb": "Tewantin",
      "State": "QLD",
      "Postcode": "4565"
    },
    {
      "Division": "SUPERMARKETS",
      "Name": "Toowong Village",
      "AddressLine1": "8 Sherwood Rd",
      "Suburb": "Toowong",
      "State": "QLD",
      "Postcode": "4066"
    },
    {
      "Division": "SUPERMARKETS",
      "Name": "Toowoomba Drayton",
      "AddressLine1": "48 Brisbane Street",
      "Suburb": "Drayton",
      "State": "QLD",
      "Postcode": "4350"
    },
    {
      "Division": "SUPERMARKETS",
      "Name": "Toowoomba Grand Central",
      "AddressLine1": "Grand Central Shopping Centre, Cnr Margaret Street & Dent Street",
      "Suburb": "Toowoomba",
      "State": "QLD",
      "Postcode": "4350"
    },
    {
      "Division": "SUPERMARKETS",
      "Name": "Underwood (Kuraby)",
      "AddressLine1": "Cnr Logan Road And Beenleigh Road",
      "Suburb": "Underwood",
      "State": "QLD",
      "Postcode": "4119"
    },
    {
      "Division": "SUPERMARKETS",
      "Name": "Upper Coomera",
      "AddressLine1": "177 Reserve Rd",
      "Suburb": "Upper Coomera",
      "State": "QLD",
      "Postcode": "4209"
    },
    {
      "Division": "SUPERMARKETS",
      "Name": "Urangan",
      "AddressLine1": "Cnr Boat Harbour Drive And Elizabeth Street",
      "Suburb": "Urangan",
      "State": "QLD",
      "Postcode": "4655"
    },
    {
      "Division": "SUPERMARKETS",
      "Name": "Victoria Point",
      "AddressLine1": "Koala Park Shopping Centre, 2-34 Bunker Road",
      "Suburb": "Victoria Point",
      "State": "QLD",
      "Postcode": "4165"
    },
    {
      "Division": "SUPERMARKETS",
      "Name": "Victoria Point East",
      "AddressLine1": "Cnr Colburn Ave, Cleveland - Redland Bay Road",
      "Suburb": "Victoria Point",
      "State": "QLD",
      "Postcode": "4165"
    },
    {
      "Division": "SUPERMARKETS",
      "Name": "Warner",
      "AddressLine1": "353 Samsonvale Road",
      "Suburb": "Warner",
      "State": "QLD",
      "Postcode": "4500"
    },
    {
      "Division": "SUPERMARKETS",
      "Name": "Warwick",
      "AddressLine1": "81 Palmerin Street",
      "Suburb": "Warwick",
      "State": "QLD",
      "Postcode": "4370"
    },
    {
      "Division": "SUPERMARKETS",
      "Name": "West Village",
      "AddressLine1": "21 Mollison Street",
      "Suburb": "West End",
      "State": "QLD",
      "Postcode": "4101"
    },
    {
      "Division": "SUPERMARKETS",
      "Name": "Wilsonton (Toowoomba)",
      "AddressLine1": "407 Bridge Street",
      "Suburb": "Toowoomba",
      "State": "QLD",
      "Postcode": "4350"
    },
    {
      "Division": "SUPERMARKETS",
      "Name": "Woodford",
      "AddressLine1": "Cnr George And Archer Streets",
      "Suburb": "Woodford",
      "State": "QLD",
      "Postcode": "4514"
    },
    {
      "Division": "SUPERMARKETS",
      "Name": "Wynnum",
      "AddressLine1": "Wynnum Plaza Shopping Centre, 2021 Wynnum Road",
      "Suburb": "Wynnum West",
      "State": "QLD",
      "Postcode": "4178"
    },
    {
      "Division": "SUPERMARKETS",
      "Name": "Wynnum Central",
      "AddressLine1": "145 Florence St",
      "Suburb": "Wynnum",
      "State": "QLD",
      "Postcode": "4178"
    },
    {
      "Division": "SUPERMARKETS",
      "Name": "Yamanto",
      "AddressLine1": "Cnr Warwick Road And Cunningham Highway",
      "Suburb": "Yamanto",
      "State": "QLD",
      "Postcode": "4305"
    },
    {
      "Division": "SUPERMARKETS",
      "Name": "Yeerongpilly",
      "AddressLine1": "250 King Arthur Terrace",
      "Suburb": "Yeerongpilly",
      "State": "QLD",
      "Postcode": "4105"
    },
    {
      "Division": "SUPERMARKETS",
      "Name": "Yeppoon",
      "AddressLine1": "42 Park Street",
      "Suburb": "Yeppoon",
      "State": "QLD",
      "Postcode": "4703"
    }
  ]
}