[
    {
        "city": "Elanora",
        "line1": "30 Guineas Creek Road",
        "postcode": "4221",
        "region": "QLD",
        "c_internalALDIID": "1619",
        "c_locationName": "ALDI Elanora"
    },
    {
        "city": "Harlaxton",
        "line1": "1 - 7 Parrot Street",
        "postcode": "4350",
        "region": "QLD",
        "c_internalALDIID": "1695",
        "c_locationName": "ALDI Harlaxton"
    },
    {
        "city": "Darra",
        "line1": "Monier Road 166",
        "postcode": "4076",
        "region": "QLD",
        "c_internalALDIID": "1722",
        "c_locationName": "ALDI Darra"
    },
    {
        "city": "Redbank",
        "line1": "1 Collingwood Drive",
        "postcode": "4031",
        "region": "QLD",
        "c_internalALDIID": "1643",
        "c_locationName": "ALDI Redbank"
    },
    {
        "city": "North Lakes",
        "line1": "48 North Lakes Drive",
        "postcode": "4509",
        "region": "QLD",
        "c_internalALDIID": "2161",
        "c_locationName": "ALDI North Lakes"
    },
    {
        "city": "Allenstown",
        "line1": "167 Gladstone Road",
        "postcode": "4700",
        "region": "QLD",
        "c_internalALDIID": "2362",
        "c_locationName": "ALDI Allenstown"
    },
    {
        "city": "Kenmore",
        "line1": "795 Moggill Road",
        "postcode": "4069",
        "region": "QLD",
        "c_internalALDIID": "1666",
        "c_locationName": "ALDI Kenmore"
    },
    {
        "city": "Arana Hills",
        "line1": "5-11 Patricks Road",
        "postcode": "4054",
        "region": "QLD",
        "c_internalALDIID": "1681",
        "c_locationName": "ALDI Arana Hills"
    },
    {
        "city": "Upper Coomera",
        "line1": "21 Coomera Grand Drive",
        "postcode": "4209",
        "region": "QLD",
        "c_internalALDIID": "1291",
        "c_locationName": "ALDI Upper Coomera"
    },
    {
        "city": "Southport",
        "line1": "163-171 Ferry Road",
        "postcode": "4215",
        "region": "QLD",
        "c_internalALDIID": "0398",
        "c_locationName": "ALDI Southport"
    },
    {
        "city": "Nambour",
        "line1": "125 Howard Street",
        "postcode": "4560",
        "region": "QLD",
        "c_internalALDIID": "1620",
        "c_locationName": "ALDI Nambour"
    },
    {
        "city": "Clontarf",
        "line1": "10-22 Hornibrook Esplanade",
        "postcode": "4019",
        "region": "QLD",
        "c_internalALDIID": "1976",
        "c_locationName": "ALDI Clontarf"
    },
    {
        "city": "Acacia Ridge",
        "line1": "Beaudesert Road 1150",
        "postcode": "4110",
        "region": "QLD",
        "c_internalALDIID": "1708",
        "c_locationName": "ALDI Acacia Ridge"
    },
    {
        "city": "Tingalpa",
        "line1": "1799 Wynnum Road",
        "postcode": "4173",
        "region": "QLD",
        "c_internalALDIID": "0263",
        "c_locationName": "ALDI Tingalpa"
    },
    {
        "city": "Taigum",
        "line1": "330 Roghan Road",
        "postcode": "4018",
        "region": "QLD",
        "c_internalALDIID": "1574",
        "c_locationName": "ALDI Taigum"
    },
    {
        "city": "Beaudesert",
        "line1": "155 - 161 Brisbane Street",
        "postcode": "4285",
        "region": "QLD",
        "c_internalALDIID": "0716",
        "c_locationName": "ALDI Beaudesert"
    },
    {
        "city": "Caboolture",
        "line1": "147 King Street",
        "postcode": "4510",
        "region": "QLD",
        "c_internalALDIID": "2206",
        "c_locationName": "ALDI Caboolture"
    },
    {
        "city": "Marsden",
        "line1": "50 - 58 Bourke Street",
        "postcode": "4132",
        "region": "QLD",
        "c_internalALDIID": "0889",
        "c_locationName": "ALDI Marsden"
    },
    {
        "city": "Underwood",
        "line1": "21 Kingston Road",
        "postcode": "4119",
        "region": "QLD",
        "c_internalALDIID": "1522",
        "c_locationName": "ALDI Underwood"
    },
    {
        "city": "Nerang",
        "line1": "Station Street 57",
        "postcode": "4211",
        "region": "QLD",
        "c_internalALDIID": "0425",
        "c_locationName": "ALDI Nerang"
    },
    {
        "city": "Upper Mount Gravatt",
        "line1": "2049 Logan Road",
        "postcode": "4122",
        "region": "QLD",
        "c_internalALDIID": "1557",
        "c_locationName": "ALDI Upper Mount Gravatt"
    },
    {
        "city": "Mount Ommaney",
        "line1": "171 Dandenong Road",
        "postcode": "4074",
        "region": "QLD",
        "c_internalALDIID": "1069",
        "c_locationName": "ALDI Mount Ommaney"
    },
    {
        "city": "Slacks Creek",
        "line1": "392 Kingston Road",
        "postcode": "4127",
        "region": "QLD",
        "c_internalALDIID": "0085",
        "c_locationName": "ALDI Slacks Creek"
    },
    {
        "city": "Hope Island",
        "line1": "99 - 103 Broadwater Avenue",
        "postcode": "4212",
        "region": "QLD",
        "c_internalALDIID": "2194",
        "c_locationName": "ALDI Hope Island"
    },
    {
        "city": "Kelvin Grove",
        "line1": "Bishop Street 12",
        "postcode": "4059",
        "region": "QLD",
        "c_internalALDIID": "1281",
        "c_locationName": "ALDI Kelvin Grove"
    },
    {
        "city": "Alexandra Hills",
        "line1": "157 - 169 Finucane Road",
        "postcode": "4161",
        "region": "QLD",
        "c_internalALDIID": "0871",
        "c_locationName": "ALDI Alexandra Hills"
    },
    {
        "city": "Stones Corner",
        "line1": "Logan Road 405",
        "postcode": "4120",
        "region": "QLD",
        "c_internalALDIID": "1583",
        "c_locationName": "ALDI Stones Corner"
    },
    {
        "city": "Cannon Hill",
        "line1": "1145 Wynnum Road",
        "postcode": "4170",
        "region": "QLD",
        "c_internalALDIID": "1725",
        "c_locationName": "ALDI Cannon Hill"
    },
    {
        "city": "Chermside",
        "line1": "628 Gympie Road",
        "postcode": "4032",
        "region": "QLD",
        "c_internalALDIID": "0076",
        "c_locationName": "ALDI Chermside"
    },
    {
        "city": "Gympie",
        "line1": "43-47 Hyne Street",
        "postcode": "4570",
        "region": "QLD",
        "c_internalALDIID": "0320",
        "c_locationName": "ALDI Gympie"
    },
    {
        "city": "Dalby",
        "line1": "34 Archibald Street",
        "postcode": "4405",
        "region": "QLD",
        "c_internalALDIID": "2365",
        "c_locationName": "ALDI Dalby"
    },
    {
        "city": "Fairfield Gardens",
        "line1": "180 Fairfield Road",
        "postcode": "4103",
        "region": "QLD",
        "c_internalALDIID": "2345",
        "c_locationName": "ALDI Fairfield Gardens"
    },
    {
        "city": "Aspley",
        "line1": "Albany Creek Road 59",
        "postcode": "4034",
        "region": "QLD",
        "c_internalALDIID": "1752",
        "c_locationName": "ALDI Aspley"
    },
    {
        "city": "Oxenford",
        "line1": "2 Global Plaza",
        "postcode": "4210",
        "region": "QLD",
        "c_internalALDIID": "1720",
        "c_locationName": "ALDI Oxenford"
    },
    {
        "city": "Warner",
        "line1": "353 - 355 Samsonvale Road",
        "postcode": "4500",
        "region": "QLD",
        "c_internalALDIID": "1860",
        "c_locationName": "ALDI Warner"
    },
    {
        "city": "Mountain Creek",
        "line1": "69-79 Attenuata Drive",
        "postcode": "4557",
        "region": "QLD",
        "c_internalALDIID": "1759",
        "c_locationName": "ALDI Mountain Creek"
    },
    {
        "city": "Morayfield Supercentre",
        "line1": "321-344 Morayfield Road",
        "postcode": "4506",
        "region": "QLD",
        "c_internalALDIID": "2202",
        "c_locationName": "ALDI Morayfield Supercentre"
    },
    {
        "city": "Gatton",
        "line1": "7 Ballantine Street",
        "postcode": "4343",
        "region": "QLD",
        "c_internalALDIID": "1282",
        "c_locationName": "ALDI Gatton"
    },
    {
        "city": "Redbank Plains",
        "line1": "389 Redbank Plain Road",
        "postcode": "4301",
        "region": "QLD",
        "c_internalALDIID": "2147",
        "c_locationName": "ALDI Redbank Plains"
    },
    {
        "city": "Beenleigh",
        "line1": "90 City Road",
        "postcode": "4207",
        "region": "QLD",
        "c_internalALDIID": "0368",
        "c_locationName": "ALDI Beenleigh"
    },
    {
        "city": "Kingaroy",
        "line1": "73 - 81 Youngman Street",
        "postcode": "4610",
        "region": "QLD",
        "c_internalALDIID": "1081",
        "c_locationName": "ALDI Kingaroy"
    },
    {
        "city": "Burleigh Heads",
        "line1": "149 West Burleigh Road",
        "postcode": "4220",
        "region": "QLD",
        "c_internalALDIID": "1762",
        "c_locationName": "ALDI Burleigh Heads"
    },
    {
        "city": "Torrington",
        "line1": "546 Bridge Street",
        "postcode": "4350",
        "region": "QLD",
        "c_internalALDIID": "2408",
        "c_locationName": "ALDI Torrington"
    },
    {
        "city": "Keperra",
        "line1": "Settlement Road 577",
        "postcode": "4054",
        "region": "QLD",
        "c_internalALDIID": "1597",
        "c_locationName": "ALDI Keperra"
    },
    {
        "city": "Maryborough",
        "line1": "340 Alice Street",
        "postcode": "4650",
        "region": "QLD",
        "c_internalALDIID": "0401",
        "c_locationName": "ALDI Maryborough"
    },
    {
        "city": "Pimpama",
        "line1": "102 Pimpama Jacobs Well Road",
        "postcode": "4209",
        "region": "QLD",
        "c_internalALDIID": "2214",
        "c_locationName": "ALDI Pimpama"
    },
    {
        "city": "Runaway Bay",
        "line1": "10 - 12 Lae Drive",
        "postcode": "4216",
        "region": "QLD",
        "c_internalALDIID": "1552",
        "c_locationName": "ALDI Runaway Bay"
    },
    {
        "city": "Browns Plains",
        "line1": "27 - 49 Browns Plains Road",
        "postcode": "4118",
        "region": "QLD",
        "c_internalALDIID": "0468",
        "c_locationName": "ALDI Browns Plains"
    },
    {
        "city": "Avoca",
        "line1": "123 Takalvan Street",
        "postcode": "4670",
        "region": "QLD",
        "c_internalALDIID": "2439",
        "c_locationName": "ALDI Avoca"
    },
    {
        "city": "Indooroopilly",
        "line1": "322 Moggill Road",
        "postcode": "4068",
        "region": "QLD",
        "c_internalALDIID": "2404",
        "c_locationName": "ALDI Indooroopilly"
    }
]