[
    {
        "city": "Drewvale",
        "line1": "27 Illaweena St",
        "postcode": "4116",
        "region": "QLD",
        "c_internalALDIID": "2049",
        "c_locationName": "ALDI Drewvale"
    },
    {
        "city": "Kippa Ring",
        "line1": "212 Anzac Avenue",
        "postcode": "4021",
        "region": "QLD",
        "c_internalALDIID": "0402",
        "c_locationName": "ALDI Kippa Ring"
    },
    {
        "city": "Albany Creek",
        "line1": "630-636 Albany Creek Road",
        "postcode": "4035",
        "region": "QLD",
        "c_internalALDIID": "0864",
        "c_locationName": "ALDI Albany Creek"
    },
    {
        "city": "Beerwah",
        "line1": "78 Simpson Street",
        "postcode": "4519",
        "region": "QLD",
        "c_internalALDIID": "1339",
        "c_locationName": "ALDI Beerwah"
    },
    {
        "city": "Sandgate",
        "line1": "47 Brighton Road",
        "postcode": "4017",
        "region": "QLD",
        "c_internalALDIID": "1660",
        "c_locationName": "ALDI Sandgate"
    },
    {
        "city": "Mudgeeraba",
        "line1": "3 Robert St",
        "postcode": "4213",
        "region": "QLD",
        "c_internalALDIID": "0917",
        "c_locationName": "ALDI Mudgeeraba"
    },
    {
        "city": "Springwood",
        "line1": "3434 Pacific Highway",
        "postcode": "4127",
        "region": "QLD",
        "c_internalALDIID": "0629",
        "c_locationName": "ALDI Springwood"
    },
    {
        "city": "Coorparoo",
        "line1": "300 Old Cleveland Road",
        "postcode": "4151",
        "region": "QLD",
        "c_internalALDIID": "2163",
        "c_locationName": "ALDI Coorparoo"
    },
    {
        "city": "Forest Lake",
        "line1": "235 / M3 Forest Lake Boulevard",
        "postcode": "4078",
        "region": "QLD",
        "c_internalALDIID": "0244",
        "c_locationName": "ALDI Forest Lake"
    },
    {
        "city": "Gladstone",
        "line1": "52-54 Boles Street",
        "postcode": "4680",
        "region": "QLD",
        "c_internalALDIID": "1893",
        "c_locationName": "ALDI Gladstone"
    }
]