[
    {
        "city": "West Melbourne",
        "line1": "Spencer St 528",
        "postcode": "3003",
        "region": "VIC",
        "c_internalALDIID": "2418",
        "c_locationName": "ALDI West Melbourne"
    },
    {
        "city": "Wantirna South",
        "line1": "Burwood Hwy 425",
        "postcode": "3152",
        "region": "VIC",
        "c_internalALDIID": "2509",
        "c_locationName": "ALDI Wantirna South"
    },
    {
        "city": "Blackburn",
        "line1": "Springfield Rd 64-104",
        "postcode": "3130",
        "region": "VIC",
        "c_internalALDIID": "2489",
        "c_locationName": "ALDI Blackburn"
    },
    {
        "city": "Morwell",
        "line1": "Princes Drive 94/72-82",
        "postcode": "3840",
        "region": "VIC",
        "c_internalALDIID": "2496",
        "c_locationName": "ALDI Morwell"
    },
    {
        "city": "Chadstone",
        "line1": "Warrigal Road 695",
        "postcode": "3148",
        "region": "VIC",
        "c_internalALDIID": "2513",
        "c_locationName": "ALDI Chadstone"
    },
    {
        "city": "Truganina",
        "line1": "33 Prosperity Street",
        "postcode": "3029",
        "region": "VIC",
        "c_internalALDIID": "2246",
        "c_locationName": "ALDI Truganina"
    },
    {
        "city": "Caulfield South",
        "line1": "348-354 Hawthorn Road",
        "postcode": "3162",
        "region": "VIC",
        "c_internalALDIID": "2466",
        "c_locationName": "ALDI Caulfield South"
    },
    {
        "city": "Yarrawonga",
        "line1": "Frank Drive 2",
        "postcode": "3730",
        "region": "VIC",
        "c_internalALDIID": "2485",
        "c_locationName": "ALDI Yarrawonga"
    },
    {
        "city": "Craigieburn",
        "line1": "Riley Road 10",
        "postcode": "3064",
        "region": "VIC",
        "c_internalALDIID": "2520",
        "c_locationName": "ALDI Craigieburn"
    }
]