[
    {
        "city": "Sale",
        "line1": "Raymond Street 396 - 420",
        "postcode": "3850",
        "region": "VIC",
        "c_internalALDIID": "0735",
        "c_locationName": "ALDI Sale"
    },
    {
        "city": "Wyndham Vale",
        "line1": "209 Greens Road",
        "postcode": "3024",
        "region": "VIC",
        "c_internalALDIID": "1413",
        "c_locationName": "ALDI Wyndham Vale"
    },
    {
        "city": "Rosebud",
        "line1": "1313 Point Nepean Road",
        "postcode": "3939",
        "region": "VIC",
        "c_internalALDIID": "0110",
        "c_locationName": "ALDI Rosebud"
    },
    {
        "city": "Epping",
        "line1": "347 - 371 Dalton Road",
        "postcode": "3076",
        "region": "VIC",
        "c_internalALDIID": "0776",
        "c_locationName": "ALDI Epping"
    },
    {
        "city": "Kilsyth",
        "line1": "Mount Dandenong Rd 540",
        "postcode": "3137",
        "region": "VIC",
        "c_internalALDIID": "1418",
        "c_locationName": "ALDI Kilsyth"
    },
    {
        "city": "Endeavour Hills",
        "line1": "974 Heatherton Road",
        "postcode": "3802",
        "region": "VIC",
        "c_internalALDIID": "0384",
        "c_locationName": "ALDI Endeavour Hills"
    },
    {
        "city": "Carnegie",
        "line1": "Koornang Road 2 - 18",
        "postcode": "3064",
        "region": "VIC",
        "c_internalALDIID": "1729",
        "c_locationName": "ALDI Carnegie"
    },
    {
        "city": "Somerville",
        "line1": "Frankston-Flinders Road 1089 - 109",
        "postcode": "3912",
        "region": "VIC",
        "c_internalALDIID": "0798",
        "c_locationName": "ALDI Somerville"
    },
    {
        "city": "Melton West",
        "line1": "High Street 533",
        "postcode": "3337",
        "region": "VIC",
        "c_internalALDIID": "1821",
        "c_locationName": "ALDI Melton West"
    },
    {
        "city": "Sunbury",
        "line1": "Gap Road 112 - 126",
        "postcode": "3429",
        "region": "VIC",
        "c_internalALDIID": "0112",
        "c_locationName": "ALDI Sunbury"
    },
    {
        "city": "Prahran",
        "line1": "34 Elizabeth Street",
        "postcode": "3181",
        "region": "VIC",
        "c_internalALDIID": "0181",
        "c_locationName": "ALDI Prahran"
    },
    {
        "city": "Brandon Park",
        "line1": "Cnr Springvale Road, Ferntree Gully Road",
        "postcode": "3170",
        "region": "VIC",
        "c_internalALDIID": "0089",
        "c_locationName": "ALDI Brandon Park"
    },
    {
        "city": "Hampton Park",
        "line1": "Pound Road 400",
        "postcode": "3976",
        "region": "VIC",
        "c_internalALDIID": "0100",
        "c_locationName": "ALDI Hampton Park"
    },
    {
        "city": "Seville",
        "line1": "638 Warburton Highway",
        "postcode": "3139",
        "region": "VIC",
        "c_internalALDIID": "2346",
        "c_locationName": "ALDI Seville"
    },
    {
        "city": "Sebastopol",
        "line1": "Albert Street 31 - 35",
        "postcode": "3356",
        "region": "VIC",
        "c_internalALDIID": "0701",
        "c_locationName": "ALDI Sebastopol"
    },
    {
        "city": "Seymour",
        "line1": "32 - 34 Tallarook Street",
        "postcode": "3660",
        "region": "VIC",
        "c_internalALDIID": "1417",
        "c_locationName": "ALDI Seymour"
    },
    {
        "city": "Mill Park",
        "line1": "400 McDonalds Road",
        "postcode": "3082",
        "region": "VIC",
        "c_internalALDIID": "0106",
        "c_locationName": "ALDI Mill Park"
    },
    {
        "city": "Lyndhurst",
        "line1": "10 - 18 Society Ave",
        "postcode": "3975",
        "region": "VIC",
        "c_internalALDIID": "1230",
        "c_locationName": "ALDI Lyndhurst"
    },
    {
        "city": "Mornington",
        "line1": "Nepean Hwy 1128",
        "postcode": "3931",
        "region": "VIC",
        "c_internalALDIID": "2208",
        "c_locationName": "ALDI Mornington"
    },
    {
        "city": "Berwick",
        "line1": "O'Shea Road 1",
        "postcode": "3806",
        "region": "VIC",
        "c_internalALDIID": "1232",
        "c_locationName": "ALDI Berwick"
    },
    {
        "city": "Preston",
        "line1": "Cramer Street, Mary Street Cnr",
        "postcode": "3072",
        "region": "VIC",
        "c_internalALDIID": "0109",
        "c_locationName": "ALDI Preston"
    },
    {
        "city": "Horsham",
        "line1": "67 - 73 Hamilton Street",
        "postcode": "3400",
        "region": "VIC",
        "c_internalALDIID": "0674",
        "c_locationName": "ALDI Horsham"
    },
    {
        "city": "Ringwood",
        "line1": "Cnr Maroondah Highway, New Street",
        "postcode": "3134",
        "region": "VIC",
        "c_internalALDIID": "0215",
        "c_locationName": "ALDI Ringwood"
    },
    {
        "city": "Reservoir",
        "line1": "Plenty Road 850",
        "postcode": "3073",
        "region": "VIC",
        "c_internalALDIID": "1545",
        "c_locationName": "ALDI Reservoir"
    },
    {
        "city": "Monbulk",
        "line1": "32 - 36 Main Road",
        "postcode": "3793",
        "region": "VIC",
        "c_internalALDIID": "1758",
        "c_locationName": "ALDI Monbulk"
    },
    {
        "city": "Eaglehawk",
        "line1": "Peg Leg Road 4 - 8",
        "postcode": "3556",
        "region": "VIC",
        "c_internalALDIID": "1052",
        "c_locationName": "ALDI Eaglehawk"
    },
    {
        "city": "Templestowe Lower",
        "line1": "Manningham Road 299 - 301",
        "postcode": "3107",
        "region": "VIC",
        "c_internalALDIID": "1744",
        "c_locationName": "ALDI Templestowe Lower"
    },
    {
        "city": "Mordialloc",
        "line1": "542 Main Street",
        "postcode": "3195",
        "region": "VIC",
        "c_internalALDIID": "0762",
        "c_locationName": "ALDI Mordialloc"
    },
    {
        "city": "Leongatha",
        "line1": "8 - 10 Bruce Street",
        "postcode": "3953",
        "region": "VIC",
        "c_internalALDIID": "1756",
        "c_locationName": "ALDI Leongatha"
    },
    {
        "city": "Preston",
        "line1": "Murray Road 2 - 50",
        "postcode": "3072",
        "region": "VIC",
        "c_internalALDIID": "1843",
        "c_locationName": "ALDI Preston"
    },
    {
        "city": "Mentone",
        "line1": "Nepean Hwy 27 - 29",
        "postcode": "3194",
        "region": "VIC",
        "c_internalALDIID": "1814",
        "c_locationName": "ALDI Mentone"
    },
    {
        "city": "Bairnsdale",
        "line1": "Nicholson Street 132",
        "postcode": "3875",
        "region": "VIC",
        "c_internalALDIID": "0365",
        "c_locationName": "ALDI Bairnsdale"
    },
    {
        "city": "Highton",
        "line1": "245 - 253 South Valley Road",
        "postcode": "3216",
        "region": "VIC",
        "c_internalALDIID": "1524",
        "c_locationName": "ALDI Highton"
    },
    {
        "city": "Werribee",
        "line1": "Synott Street 77 - 83",
        "postcode": "3030",
        "region": "VIC",
        "c_internalALDIID": "0118",
        "c_locationName": "ALDI Werribee"
    },
    {
        "city": "Cranbourne",
        "line1": "14 - 20 Bakewell Street",
        "postcode": "3977",
        "region": "VIC",
        "c_internalALDIID": "0484",
        "c_locationName": "ALDI Cranbourne"
    },
    {
        "city": "Drysdale",
        "line1": "12 - 22 Murradoc Road",
        "postcode": "3222",
        "region": "VIC",
        "c_internalALDIID": "1502",
        "c_locationName": "ALDI Drysdale"
    },
    {
        "city": "Epping",
        "line1": "High Street 571 - 583",
        "postcode": "3076",
        "region": "VIC",
        "c_internalALDIID": "1501",
        "c_locationName": "ALDI Epping"
    },
    {
        "city": "Craigieburn",
        "line1": "Craigieburn Road 340",
        "postcode": "3064",
        "region": "VIC",
        "c_internalALDIID": "1685",
        "c_locationName": "ALDI Craigieburn"
    },
    {
        "city": "Cheltenham",
        "line1": "280 - 282 Bay Road",
        "postcode": "3192",
        "region": "VIC",
        "c_internalALDIID": "1804",
        "c_locationName": "ALDI Cheltenham"
    },
    {
        "city": "Carrum Downs",
        "line1": "493 Frankston-Dandenong Road",
        "postcode": "3201",
        "region": "VIC",
        "c_internalALDIID": "0208",
        "c_locationName": "ALDI Carrum Downs"
    },
    {
        "city": "Hamilton",
        "line1": "104 - 108 French Street",
        "postcode": "3300",
        "region": "VIC",
        "c_internalALDIID": "0528",
        "c_locationName": "ALDI Hamilton"
    },
    {
        "city": "Maribyrnong",
        "line1": "Edgewater Boulevard 11",
        "postcode": "3032",
        "region": "VIC",
        "c_internalALDIID": "0104",
        "c_locationName": "ALDI Maribyrnong"
    },
    {
        "city": "Swan Hill",
        "line1": "Campbell Street, Rutherford Street Cnr",
        "postcode": "3585",
        "region": "VIC",
        "c_internalALDIID": "0715",
        "c_locationName": "ALDI Swan Hill"
    },
    {
        "city": "Ararat",
        "line1": "41 - 47 Moore Street",
        "postcode": "3377",
        "region": "VIC",
        "c_internalALDIID": "0665",
        "c_locationName": "ALDI Ararat"
    },
    {
        "city": "Rowville",
        "line1": "Wellington Road 1100",
        "postcode": "3178",
        "region": "VIC",
        "c_internalALDIID": "0520",
        "c_locationName": "ALDI Rowville"
    },
    {
        "city": "Bentleigh",
        "line1": "285 - 305 Centre Road",
        "postcode": "3204",
        "region": "VIC",
        "c_internalALDIID": "1746",
        "c_locationName": "ALDI Bentleigh"
    },
    {
        "city": "Deer Park",
        "line1": "Cnr Neale Road, Station Road",
        "postcode": "3023",
        "region": "VIC",
        "c_internalALDIID": "1415",
        "c_locationName": "ALDI Deer Park"
    },
    {
        "city": "Airport West",
        "line1": "29 - 35 Louis Street",
        "postcode": "3042",
        "region": "VIC",
        "c_internalALDIID": "0163",
        "c_locationName": "ALDI Airport West"
    },
    {
        "city": "Wodonga",
        "line1": "Elgin Boulevard 72",
        "postcode": "3690",
        "region": "VIC",
        "c_internalALDIID": "0225",
        "c_locationName": "ALDI Wodonga"
    },
    {
        "city": "Box Hill South",
        "line1": "Station Street 391 - 395",
        "postcode": "3128",
        "region": "VIC",
        "c_internalALDIID": "0690",
        "c_locationName": "ALDI Box Hill South"
    }
]