[
    {
        "city": "Frankston",
        "line1": "28 Beach Street",
        "postcode": "3199",
        "region": "VIC",
        "c_internalALDIID": "1453",
        "c_locationName": "ALDI Frankston"
    },
    {
        "city": "Cheltenham",
        "line1": "Nepean Highway 1239",
        "postcode": "3192",
        "region": "VIC",
        "c_internalALDIID": "1333",
        "c_locationName": "ALDI Cheltenham"
    },
    {
        "city": "Echuca",
        "line1": "Anstruther Street 218 - 222",
        "postcode": "3564",
        "region": "VIC",
        "c_internalALDIID": "1121",
        "c_locationName": "ALDI Echuca"
    },
    {
        "city": "Mooroopna",
        "line1": "97 - 101 McLennan Street",
        "postcode": "3629",
        "region": "VIC",
        "c_internalALDIID": "1423",
        "c_locationName": "ALDI Mooroopna"
    },
    {
        "city": "Cowes",
        "line1": "68 - 80 Thompson Avenue",
        "postcode": "3922",
        "region": "VIC",
        "c_internalALDIID": "2100",
        "c_locationName": "ALDI Cowes"
    },
    {
        "city": "Eltham",
        "line1": "Luck Street 6 - 20",
        "postcode": "3095",
        "region": "VIC",
        "c_internalALDIID": "0597",
        "c_locationName": "ALDI Eltham"
    },
    {
        "city": "Beaconsfield",
        "line1": "Old Princes Highway 53",
        "postcode": "3807",
        "region": "VIC",
        "c_internalALDIID": "0087",
        "c_locationName": "ALDI Beaconsfield"
    },
    {
        "city": "Point Cook",
        "line1": "Point Cook Road 300",
        "postcode": "3030",
        "region": "VIC",
        "c_internalALDIID": "1546",
        "c_locationName": "ALDI Point Cook"
    },
    {
        "city": "Scoresby",
        "line1": "Stud Road 800",
        "postcode": "3179",
        "region": "VIC",
        "c_internalALDIID": "2186",
        "c_locationName": "ALDI Scoresby"
    },
    {
        "city": "Mornington",
        "line1": "Main Street 241 / M02",
        "postcode": "3931",
        "region": "VIC",
        "c_internalALDIID": "1355",
        "c_locationName": "ALDI Mornington"
    }
]