[
    {
        "city": "Malvern East",
        "line1": "Dandenong Road 1341",
        "postcode": "3148",
        "region": "VIC",
        "c_internalALDIID": "1160",
        "c_locationName": "ALDI Malvern East"
    },
    {
        "city": "Altona North",
        "line1": "Millers Road 124 - 134",
        "postcode": "3025",
        "region": "VIC",
        "c_internalALDIID": "1244",
        "c_locationName": "ALDI Altona North"
    },
    {
        "city": "Grovedale",
        "line1": "142 Torquay Road",
        "postcode": "3216",
        "region": "VIC",
        "c_internalALDIID": "1338",
        "c_locationName": "ALDI Grovedale"
    },
    {
        "city": "Warragul",
        "line1": "Queen Street 12 - 28",
        "postcode": "3820",
        "region": "VIC",
        "c_internalALDIID": "0333",
        "c_locationName": "ALDI Warragul"
    },
    {
        "city": "Alfredton",
        "line1": "Sturt Street 1611 - 161",
        "postcode": "3350",
        "region": "VIC",
        "c_internalALDIID": "0986",
        "c_locationName": "ALDI Alfredton"
    },
    {
        "city": "Ballarat",
        "line1": "Creswick Road 102 -114",
        "postcode": "3350",
        "region": "VIC",
        "c_internalALDIID": "0409",
        "c_locationName": "ALDI Ballarat"
    },
    {
        "city": "Balwyn North",
        "line1": "Cnr Doncaster Road, Tannock Street",
        "postcode": "3104",
        "region": "VIC",
        "c_internalALDIID": "1963",
        "c_locationName": "ALDI Balwyn North"
    },
    {
        "city": "Roxburgh Park",
        "line1": "Somerton Road 250",
        "postcode": "3064",
        "region": "VIC",
        "c_internalALDIID": "1394",
        "c_locationName": "ALDI Roxburgh Park"
    },
    {
        "city": "Abbotsford",
        "line1": "313 - 325 Victoria Street",
        "postcode": "3067",
        "region": "VIC",
        "c_internalALDIID": "1354",
        "c_locationName": "ALDI Abbotsford"
    },
    {
        "city": "Altona North",
        "line1": "302 - 330 Millers Road",
        "postcode": "3025",
        "region": "VIC",
        "c_internalALDIID": "1810",
        "c_locationName": "ALDI Altona North"
    },
    {
        "city": "Warrnambool",
        "line1": "251 - 257 Lava Street",
        "postcode": "3280",
        "region": "VIC",
        "c_internalALDIID": "0164",
        "c_locationName": "ALDI Warrnambool"
    },
    {
        "city": "White Box Rise Wodonga",
        "line1": "Cnr Victoria Cross Parade, Wark Street",
        "postcode": "3690",
        "region": "VIC",
        "c_internalALDIID": "2216",
        "c_locationName": "ALDI White Box Rise Wodonga"
    },
    {
        "city": "South Melbourne",
        "line1": "100 Market Street",
        "postcode": "3205",
        "region": "VIC",
        "c_internalALDIID": "1422",
        "c_locationName": "ALDI South Melbourne"
    },
    {
        "city": "Wangaratta",
        "line1": "Chisholm Street 13 - 15",
        "postcode": "3677",
        "region": "VIC",
        "c_internalALDIID": "0928",
        "c_locationName": "ALDI Wangaratta"
    },
    {
        "city": "St Kilda",
        "line1": "Inkerman Street 135",
        "postcode": "3182",
        "region": "VIC",
        "c_internalALDIID": "0275",
        "c_locationName": "ALDI St Kilda"
    },
    {
        "city": "Forest Hill",
        "line1": "Canterbury Road 3131",
        "postcode": "3131",
        "region": "VIC",
        "c_internalALDIID": "1118",
        "c_locationName": "ALDI Forest Hill"
    },
    {
        "city": "Melbourne",
        "line1": "501 Swanston St",
        "postcode": "3000",
        "region": "VIC",
        "c_internalALDIID": "0295",
        "c_locationName": "ALDI Melbourne"
    },
    {
        "city": "Gisborne",
        "line1": "45 Aitken Street",
        "postcode": "3437",
        "region": "VIC",
        "c_internalALDIID": "2207",
        "c_locationName": "ALDI Gisborne"
    },
    {
        "city": "Traralgon",
        "line1": "141 - 143 Argyle Street",
        "postcode": "3844",
        "region": "VIC",
        "c_internalALDIID": "2051",
        "c_locationName": "ALDI Traralgon"
    },
    {
        "city": "Moe",
        "line1": "Saviges Rd 10 - 12",
        "postcode": "3825",
        "region": "VIC",
        "c_internalALDIID": "0724",
        "c_locationName": "ALDI Moe"
    },
    {
        "city": "Greensborough",
        "line1": "Main Street 25",
        "postcode": "3088",
        "region": "VIC",
        "c_internalALDIID": "1357",
        "c_locationName": "ALDI Greensborough"
    },
    {
        "city": "Melton",
        "line1": "394 - 406 High Street",
        "postcode": "3337",
        "region": "VIC",
        "c_internalALDIID": "0105",
        "c_locationName": "ALDI Melton"
    },
    {
        "city": "Sunshine",
        "line1": "324 - 328 Hampshire Road",
        "postcode": "3020",
        "region": "VIC",
        "c_internalALDIID": "0781",
        "c_locationName": "ALDI Sunshine"
    },
    {
        "city": "Altona Meadows",
        "line1": "1 Central Avenue",
        "postcode": "3028",
        "region": "VIC",
        "c_internalALDIID": "1146",
        "c_locationName": "ALDI Altona Meadows"
    },
    {
        "city": "Lakes Entrance",
        "line1": "6 - 12 Marine Parade",
        "postcode": "3909",
        "region": "VIC",
        "c_internalALDIID": "2128",
        "c_locationName": "ALDI Lakes Entrance"
    },
    {
        "city": "Wonthaggi",
        "line1": "Cnr Murray Street, McKenzie Street",
        "postcode": "3995",
        "region": "VIC",
        "c_internalALDIID": "0191",
        "c_locationName": "ALDI Wonthaggi"
    },
    {
        "city": "Geelong West",
        "line1": "117 - 127 Albert Street",
        "postcode": "3218",
        "region": "VIC",
        "c_internalALDIID": "1314",
        "c_locationName": "ALDI Geelong West"
    },
    {
        "city": "Tarneit",
        "line1": "380 Sayers Road",
        "postcode": "3029",
        "region": "VIC",
        "c_internalALDIID": "0386",
        "c_locationName": "ALDI Tarneit"
    },
    {
        "city": "Preston",
        "line1": "Dundas Street 15",
        "postcode": "3072",
        "region": "VIC",
        "c_internalALDIID": "1606",
        "c_locationName": "ALDI Preston"
    },
    {
        "city": "West Footscray",
        "line1": "Ashley Street 67",
        "postcode": "3012",
        "region": "VIC",
        "c_internalALDIID": "0114",
        "c_locationName": "ALDI West Footscray"
    },
    {
        "city": "Caroline Springs",
        "line1": "29 - 35 Lake Street",
        "postcode": "3023",
        "region": "VIC",
        "c_internalALDIID": "1320",
        "c_locationName": "ALDI Caroline Springs"
    },
    {
        "city": "Carrum",
        "line1": "Station Street 516 - 520",
        "postcode": "3197",
        "region": "VIC",
        "c_internalALDIID": "0091",
        "c_locationName": "ALDI Carrum"
    },
    {
        "city": "Bundoora",
        "line1": "584 - 604 Grimshaw Street",
        "postcode": "3083",
        "region": "VIC",
        "c_internalALDIID": "1208",
        "c_locationName": "ALDI Bundoora"
    },
    {
        "city": "Narre Warren South",
        "line1": "Princess Highway 229",
        "postcode": "3805",
        "region": "VIC",
        "c_internalALDIID": "0160",
        "c_locationName": "ALDI Narre Warren South"
    },
    {
        "city": "Burnside",
        "line1": "Westwood Drive 5 - 25",
        "postcode": "3023",
        "region": "VIC",
        "c_internalALDIID": "0090",
        "c_locationName": "ALDI Burnside"
    },
    {
        "city": "Northcote",
        "line1": "Cnr High Street, Separation Street",
        "postcode": "3070",
        "region": "VIC",
        "c_internalALDIID": "0364",
        "c_locationName": "ALDI Northcote"
    },
    {
        "city": "Dandenong",
        "line1": "McCrae Street, Walker Street Cnr",
        "postcode": "3175",
        "region": "VIC",
        "c_internalALDIID": "1765",
        "c_locationName": "ALDI Dandenong"
    },
    {
        "city": "Colac",
        "line1": "62 - 70 Hesse Street",
        "postcode": "3250",
        "region": "VIC",
        "c_internalALDIID": "0165",
        "c_locationName": "ALDI Colac"
    },
    {
        "city": "Burwood East",
        "line1": "Burwood Highway, Blackburn Road Cnr",
        "postcode": "3151",
        "region": "VIC",
        "c_internalALDIID": "0653",
        "c_locationName": "ALDI Burwood East"
    },
    {
        "city": "The Pines",
        "line1": "181 Reynolds Road",
        "postcode": "3109",
        "region": "VIC",
        "c_internalALDIID": "0162",
        "c_locationName": "ALDI The Pines"
    },
    {
        "city": "Lilydale",
        "line1": "33 Hutchinson Street",
        "postcode": "3140",
        "region": "VIC",
        "c_internalALDIID": "1412",
        "c_locationName": "ALDI Lilydale"
    },
    {
        "city": "Kangaroo Flat",
        "line1": "High Street, Lockwood Road Cnr",
        "postcode": "3555",
        "region": "VIC",
        "c_internalALDIID": "0317",
        "c_locationName": "ALDI Kangaroo Flat"
    },
    {
        "city": "Keilor Downs",
        "line1": "Taylors Road 80",
        "postcode": "3038",
        "region": "VIC",
        "c_internalALDIID": "0226",
        "c_locationName": "ALDI Keilor Downs"
    },
    {
        "city": "Portland",
        "line1": "29 Henty Street",
        "postcode": "3305",
        "region": "VIC",
        "c_internalALDIID": "1313",
        "c_locationName": "ALDI Portland"
    },
    {
        "city": "Springvale South",
        "line1": "792 - 806 Heatherton Road",
        "postcode": "3172",
        "region": "VIC",
        "c_internalALDIID": "0610",
        "c_locationName": "ALDI Springvale South"
    },
    {
        "city": "Belmont",
        "line1": "High Street 149 - 151",
        "postcode": "3216",
        "region": "VIC",
        "c_internalALDIID": "0088",
        "c_locationName": "ALDI Belmont"
    },
    {
        "city": "Heidelberg West",
        "line1": "Bell Street 318",
        "postcode": "3081",
        "region": "VIC",
        "c_internalALDIID": "0115",
        "c_locationName": "ALDI Heidelberg West"
    },
    {
        "city": "Moorabbin Airport",
        "line1": "288 Centre Dandenong Road",
        "postcode": "3194",
        "region": "VIC",
        "c_internalALDIID": "0107",
        "c_locationName": "ALDI Moorabbin Airport"
    },
    {
        "city": "Ferntree Gully",
        "line1": "Burwood Highway 1009",
        "postcode": "3156",
        "region": "VIC",
        "c_internalALDIID": "0096",
        "c_locationName": "ALDI Ferntree Gully"
    },
    {
        "city": "Maryborough",
        "line1": "Burke Street 111",
        "postcode": "3465",
        "region": "VIC",
        "c_internalALDIID": "1135",
        "c_locationName": "ALDI Maryborough"
    }
]