[
    {
        "city": "Newcomb",
        "line1": "Cnr Newcomb S/C Bellarine Hwy",
        "postcode": "3219",
        "region": "VIC",
        "c_internalALDIID": "0108",
        "c_locationName": "ALDI Newcomb"
    },
    {
        "city": "Chirnside Park",
        "line1": "Cnr Kimberly Drive, El Centro St",
        "postcode": "3116",
        "region": "VIC",
        "c_internalALDIID": "0092",
        "c_locationName": "ALDI Chirnside Park"
    },
    {
        "city": "Cranbourne East",
        "line1": "1 S Linsell Boulevard",
        "postcode": "3977",
        "region": "VIC",
        "c_internalALDIID": "1836",
        "c_locationName": "ALDI Cranbourne East"
    },
    {
        "city": "Heidelberg",
        "line1": "Burgundy Street 56",
        "postcode": "3084",
        "region": "VIC",
        "c_internalALDIID": "0802",
        "c_locationName": "ALDI Heidelberg"
    },
    {
        "city": "Keilor East",
        "line1": "Milleara Road, Buckley Street Cnr",
        "postcode": "3033",
        "region": "VIC",
        "c_internalALDIID": "1182",
        "c_locationName": "ALDI Keilor East"
    },
    {
        "city": "Corio",
        "line1": "465 Princes Highway",
        "postcode": "3214",
        "region": "VIC",
        "c_internalALDIID": "0197",
        "c_locationName": "ALDI Corio"
    },
    {
        "city": "Bayswater",
        "line1": "10 - 14 High Street",
        "postcode": "3153",
        "region": "VIC",
        "c_internalALDIID": "0564",
        "c_locationName": "ALDI Bayswater"
    },
    {
        "city": "Werribee",
        "line1": "Cnr Derrimut Road, Heaths Road",
        "postcode": "3030",
        "region": "VIC",
        "c_internalALDIID": "1440",
        "c_locationName": "ALDI Werribee"
    },
    {
        "city": "Ocean Grove",
        "line1": "Coastal Boulevard 12 - 22",
        "postcode": "3226",
        "region": "VIC",
        "c_internalALDIID": "1598",
        "c_locationName": "ALDI Ocean Grove"
    },
    {
        "city": "Bacchus Marsh",
        "line1": "158 - 196 Main Street",
        "postcode": "3340",
        "region": "VIC",
        "c_internalALDIID": "0207",
        "c_locationName": "ALDI Bacchus Marsh"
    },
    {
        "city": "Strathdale",
        "line1": "90 - 92 Edwards Road",
        "postcode": "3550",
        "region": "VIC",
        "c_internalALDIID": "1023",
        "c_locationName": "ALDI Strathdale"
    },
    {
        "city": "Vermont South",
        "line1": "495 Burwood Highway",
        "postcode": "3133",
        "region": "VIC",
        "c_internalALDIID": "1802",
        "c_locationName": "ALDI Vermont South"
    },
    {
        "city": "Moonee Ponds",
        "line1": "14 - 16 Hall Street",
        "postcode": "3039",
        "region": "VIC",
        "c_internalALDIID": "1664",
        "c_locationName": "ALDI Moonee Ponds"
    },
    {
        "city": "Shepparton",
        "line1": "428 Wyndham Street",
        "postcode": "3630",
        "region": "VIC",
        "c_internalALDIID": "0153",
        "c_locationName": "ALDI Shepparton"
    },
    {
        "city": "Pakenham",
        "line1": "1 - 3 Portobello Road",
        "postcode": "3810",
        "region": "VIC",
        "c_internalALDIID": "0754",
        "c_locationName": "ALDI Pakenham"
    },
    {
        "city": "Hastings",
        "line1": "Queen Street 5",
        "postcode": "3915",
        "region": "VIC",
        "c_internalALDIID": "1572",
        "c_locationName": "ALDI Hastings"
    },
    {
        "city": "Benalla",
        "line1": "141 - 153 Bridge Street",
        "postcode": "3672",
        "region": "VIC",
        "c_internalALDIID": "0893",
        "c_locationName": "ALDI Benalla"
    },
    {
        "city": "Brunswick",
        "line1": "Sydney Road 292 - 298",
        "postcode": "3056",
        "region": "VIC",
        "c_internalALDIID": "0627",
        "c_locationName": "ALDI Brunswick"
    },
    {
        "city": "Healesville",
        "line1": "175 Maroondah Highway",
        "postcode": "3777",
        "region": "VIC",
        "c_internalALDIID": "1826",
        "c_locationName": "ALDI Healesville"
    },
    {
        "city": "Camberwell",
        "line1": "15 - 25 Station Street",
        "postcode": "3124",
        "region": "VIC",
        "c_internalALDIID": "2019",
        "c_locationName": "ALDI Camberwell"
    },
    {
        "city": "Kilmore",
        "line1": "97 Sydney Street",
        "postcode": "3764",
        "region": "VIC",
        "c_internalALDIID": "2148",
        "c_locationName": "ALDI Kilmore"
    },
    {
        "city": "Dromana",
        "line1": "120 Nepean Highway",
        "postcode": "3936",
        "region": "VIC",
        "c_internalALDIID": "1910",
        "c_locationName": "ALDI Dromana"
    },
    {
        "city": "Clyde North",
        "line1": "Cnr Berwick-Cranbourne Road, Hamersley Dr",
        "postcode": "3978",
        "region": "VIC",
        "c_internalALDIID": "2460",
        "c_locationName": "ALDI Clyde North"
    },
    {
        "city": "Bell Park",
        "line1": "Anakie Road 9 / 222",
        "postcode": "3215",
        "region": "VIC",
        "c_internalALDIID": "1632",
        "c_locationName": "ALDI Bell Park"
    },
    {
        "city": "Taylors Lakes",
        "line1": "399 Melton Highway",
        "postcode": "3038",
        "region": "VIC",
        "c_internalALDIID": "1794",
        "c_locationName": "ALDI Taylors Lakes"
    },
    {
        "city": "Lower Plenty",
        "line1": "Main Road 45",
        "postcode": "3093",
        "region": "VIC",
        "c_internalALDIID": "1842",
        "c_locationName": "ALDI Lower Plenty"
    },
    {
        "city": "Coburg North",
        "line1": "Sydney Road 1009 - 101",
        "postcode": "3058",
        "region": "VIC",
        "c_internalALDIID": "2323",
        "c_locationName": "ALDI Coburg North"
    },
    {
        "city": "Karingal",
        "line1": "330 Cranbourne Road",
        "postcode": "3199",
        "region": "VIC",
        "c_internalALDIID": "1789",
        "c_locationName": "ALDI Karingal"
    },
    {
        "city": "Torquay",
        "line1": "Winki Way 14 - 18",
        "postcode": "3228",
        "region": "VIC",
        "c_internalALDIID": "2336",
        "c_locationName": "ALDI Torquay"
    },
    {
        "city": "Campbellfield",
        "line1": "Cnr Sydney Road, Mahoneys Road",
        "postcode": "3061",
        "region": "VIC",
        "c_internalALDIID": "2028",
        "c_locationName": "ALDI Campbellfield"
    },
    {
        "city": "Wendouree",
        "line1": "Learmonth Road 21",
        "postcode": "3355",
        "region": "VIC",
        "c_internalALDIID": "1754",
        "c_locationName": "ALDI Wendouree"
    },
    {
        "city": "Wallan",
        "line1": "13 - 17 High Street",
        "postcode": "3756",
        "region": "VIC",
        "c_internalALDIID": "1912",
        "c_locationName": "ALDI Wallan"
    },
    {
        "city": "Keysborough",
        "line1": "Cheltenham Road 466 - 468",
        "postcode": "3173",
        "region": "VIC",
        "c_internalALDIID": "2037",
        "c_locationName": "ALDI Keysborough"
    },
    {
        "city": "Glen Waverley",
        "line1": "235 Springvale Road",
        "postcode": "3150",
        "region": "VIC",
        "c_internalALDIID": "2096",
        "c_locationName": "ALDI Glen Waverley"
    },
    {
        "city": "Mildura",
        "line1": "Fifteenth Street 858",
        "postcode": "3500",
        "region": "VIC",
        "c_internalALDIID": "2309",
        "c_locationName": "ALDI Mildura"
    },
    {
        "city": "Leopold",
        "line1": "641 - 659 Bellarine Highway",
        "postcode": "3224",
        "region": "VIC",
        "c_internalALDIID": "1840",
        "c_locationName": "ALDI Leopold"
    },
    {
        "city": "Warrnambool",
        "line1": "154 Raglan Parade",
        "postcode": "3280",
        "region": "VIC",
        "c_internalALDIID": "1816",
        "c_locationName": "ALDI Warrnambool"
    },
    {
        "city": "Tarneit",
        "line1": "540 Derrimut Road",
        "postcode": "3029",
        "region": "VIC",
        "c_internalALDIID": "2296",
        "c_locationName": "ALDI Tarneit"
    },
    {
        "city": "Gladstone Park",
        "line1": "Gladstone Park Drive 8 - 34",
        "postcode": "3043",
        "region": "VIC",
        "c_internalALDIID": "2269",
        "c_locationName": "ALDI Gladstone Park"
    },
    {
        "city": "Springvale",
        "line1": "754 - 768 Princes Highway",
        "postcode": "3171",
        "region": "VIC",
        "c_internalALDIID": "2099",
        "c_locationName": "ALDI Springvale"
    },
    {
        "city": "Fitzroy",
        "line1": "247 Johnston Street",
        "postcode": "3065",
        "region": "VIC",
        "c_internalALDIID": "1957",
        "c_locationName": "ALDI Fitzroy"
    },
    {
        "city": "Croydon",
        "line1": "Kent Avenue 15 / 5",
        "postcode": "3136",
        "region": "VIC",
        "c_internalALDIID": "2117",
        "c_locationName": "ALDI Croydon"
    },
    {
        "city": "Doncaster East",
        "line1": "Mitchell Street 3 - 11",
        "postcode": "3109",
        "region": "VIC",
        "c_internalALDIID": "1841",
        "c_locationName": "ALDI Doncaster East"
    },
    {
        "city": "Epsom",
        "line1": "Midland Highway 182 - 192",
        "postcode": "3551",
        "region": "VIC",
        "c_internalALDIID": "1935",
        "c_locationName": "ALDI Epsom"
    },
    {
        "city": "Narre Warren South",
        "line1": "400 Narre Warren-Cranbourne Road",
        "postcode": "3805",
        "region": "VIC",
        "c_internalALDIID": "1728",
        "c_locationName": "ALDI Narre Warren South"
    },
    {
        "city": "Epping",
        "line1": "Harvest Home Road, Edgars Road Cnr",
        "postcode": "3076",
        "region": "VIC",
        "c_internalALDIID": "1753",
        "c_locationName": "ALDI Epping"
    },
    {
        "city": "Armstrong Creek",
        "line1": "Central Boulevard 35 - 43",
        "postcode": "3217",
        "region": "VIC",
        "c_internalALDIID": "1805",
        "c_locationName": "ALDI Armstrong Creek"
    },
    {
        "city": "Broadmeadows",
        "line1": "1099-1169 Pascoe Vale Road",
        "postcode": "3047",
        "region": "VIC",
        "c_internalALDIID": "2468",
        "c_locationName": "ALDI Broadmeadows"
    },
    {
        "city": "Mulgrave",
        "line1": "271 Police Road",
        "postcode": "3170",
        "region": "VIC",
        "c_internalALDIID": "2490",
        "c_locationName": "ALDI Mulgrave"
    },
    {
        "city": "Tarneit",
        "line1": "177 Hummingbird Boulevard",
        "postcode": "3029",
        "region": "VIC",
        "c_internalALDIID": "2256",
        "c_locationName": "ALDI Tarneit"
    }
]