[
    {
        "city": "Northam",
        "line1": "10 Beamish Avenue",
        "postcode": "6401",
        "region": "WA",
        "c_internalALDIID": "2250",
        "c_locationName": "ALDI Northam"
    },
    {
        "city": "Armadale",
        "line1": "224 Jull Street",
        "postcode": "6112",
        "region": "WA",
        "c_internalALDIID": "1927",
        "c_locationName": "ALDI Armadale"
    },
    {
        "city": "Ellenbrook",
        "line1": "The Promenade, Pinaster Pd Cnr",
        "postcode": "6056",
        "region": "WA",
        "c_internalALDIID": "1904",
        "c_locationName": "ALDI Ellenbrook"
    },
    {
        "city": "Cloverdale",
        "line1": "Belmont Avenue 227",
        "postcode": "6105",
        "region": "WA",
        "c_internalALDIID": "1887",
        "c_locationName": "ALDI Cloverdale"
    },
    {
        "city": "Currambine",
        "line1": "86 Delamere Avenue",
        "postcode": "6028",
        "region": "WA",
        "c_internalALDIID": "2042",
        "c_locationName": "ALDI Currambine"
    },
    {
        "city": "Kardinya",
        "line1": "17 South Street",
        "postcode": "6163",
        "region": "WA",
        "c_internalALDIID": "2399",
        "c_locationName": "ALDI Kardinya"
    },
    {
        "city": "Spearwood",
        "line1": "Burgundy Crescent, Lancaster Street Cnr",
        "postcode": "6163",
        "region": "WA",
        "c_internalALDIID": "2191",
        "c_locationName": "ALDI Spearwood"
    },
    {
        "city": "Australind",
        "line1": "Mardo Avenue 5",
        "postcode": "6233",
        "region": "WA",
        "c_internalALDIID": "2025",
        "c_locationName": "ALDI Australind"
    },
    {
        "city": "Southern River",
        "line1": "346 Warton Road",
        "postcode": "6110",
        "region": "WA",
        "c_internalALDIID": "1903",
        "c_locationName": "ALDI Southern River"
    },
    {
        "city": "Halls Head",
        "line1": "14 Guava Way",
        "postcode": "6210",
        "region": "WA",
        "c_internalALDIID": "1985",
        "c_locationName": "ALDI Halls Head"
    }
]